{"type":"FeatureCollection","features":[{"type":"Feature","properties":{"h":"892a1348887ffff","s12":2,"s36":6,"f_poverty":53},"geometry":{"type":"Polygon","coordinates":[[[-75.172173,39.989271],[-75.174221,39.98832],[-75.174109,39.986576],[-75.171949,39.985784],[-75.169902,39.986735],[-75.170013,39.988478],[-75.172173,39.989271],[-75.172173,39.989271]]]}},{"type":"Feature","properties":{"h":"892a1348897ffff","s12":0,"s36":3,"f_poverty":73},"geometry":{"type":"Polygon","coordinates":[[[-75.170237,39.991965],[-75.172285,39.991014],[-75.172173,39.989271],[-75.170013,39.988478],[-75.167966,39.989429],[-75.168077,39.991173],[-75.170237,39.991965],[-75.170237,39.991965]]]}},{"type":"Feature","properties":{"h":"892a13488a3ffff","s12":0,"s36":1,"f_poverty":53},"geometry":{"type":"Polygon","coordinates":[[[-75.171838,39.984041],[-75.173885,39.98309],[-75.173773,39.981346],[-75.171614,39.980554],[-75.169567,39.981505],[-75.169679,39.983248],[-75.171838,39.984041],[-75.171838,39.984041]]]}},{"type":"Feature","properties":{"h":"892a13488a7ffff","s12":2,"s36":7,"f_poverty":55},"geometry":{"type":"Polygon","coordinates":[[[-75.169567,39.981505],[-75.171614,39.980554],[-75.171503,39.978811],[-75.169344,39.978019],[-75.167296,39.978969],[-75.167408,39.980713],[-75.169567,39.981505],[-75.169567,39.981505]]]}},{"type":"Feature","properties":{"h":"892a13488b3ffff","s12":0,"s36":1,"f_poverty":59},"geometry":{"type":"Polygon","coordinates":[[[-75.169902,39.986735],[-75.171949,39.985784],[-75.171838,39.984041],[-75.169679,39.983248],[-75.167631,39.984199],[-75.167742,39.985942],[-75.169902,39.986735],[-75.169902,39.986735]]]}},{"type":"Feature","properties":{"h":"892a13488b7ffff","s12":0,"s36":2,"f_poverty":66},"geometry":{"type":"Polygon","coordinates":[[[-75.167631,39.984199],[-75.169679,39.983248],[-75.169567,39.981505],[-75.167408,39.980713],[-75.16536,39.981664],[-75.165472,39.983407],[-75.167631,39.984199],[-75.167631,39.984199]]]}},{"type":"Feature","properties":{"h":"892a13488bbffff","s12":0,"s36":2,"f_poverty":59},"geometry":{"type":"Polygon","coordinates":[[[-75.174109,39.986576],[-75.176156,39.985625],[-75.176044,39.983882],[-75.173885,39.98309],[-75.171838,39.984041],[-75.171949,39.985784],[-75.174109,39.986576],[-75.174109,39.986576]]]}},{"type":"Feature","properties":{"h":"892a1348983ffff","s12":0,"s36":0,"f_poverty":76},"geometry":{"type":"Polygon","coordinates":[[[-75.15855,39.974057],[-75.160597,39.973106],[-75.160486,39.971363],[-75.158328,39.970571],[-75.15628,39.971521],[-75.156392,39.973264],[-75.15855,39.974057],[-75.15855,39.974057]]]}},{"type":"Feature","properties":{"h":"892a134898bffff","s12":1,"s36":4,"f_poverty":54},"geometry":{"type":"Polygon","coordinates":[[[-75.162756,39.973899],[-75.164803,39.972948],[-75.164692,39.971205],[-75.162533,39.970413],[-75.160486,39.971363],[-75.160597,39.973106],[-75.162756,39.973899],[-75.162756,39.973899]]]}},{"type":"Feature","properties":{"h":"892a1348993ffff","s12":2,"s36":6,"f_poverty":87},"geometry":{"type":"Polygon","coordinates":[[[-75.156614,39.976751],[-75.158661,39.9758],[-75.15855,39.974057],[-75.156392,39.973264],[-75.154344,39.974215],[-75.154455,39.975958],[-75.156614,39.976751],[-75.156614,39.976751]]]}},{"type":"Feature","properties":{"h":"892a1348997ffff","s12":1,"s36":3,"f_poverty":83},"geometry":{"type":"Polygon","coordinates":[[[-75.154344,39.974215],[-75.156392,39.973264],[-75.15628,39.971521],[-75.154122,39.970729],[-75.152075,39.971679],[-75.152186,39.973422],[-75.154344,39.974215],[-75.154344,39.974215]]]}},{"type":"Feature","properties":{"h":"892a134899bffff","s12":2,"s36":6,"f_poverty":77},"geometry":{"type":"Polygon","coordinates":[[[-75.16082,39.976592],[-75.162867,39.975642],[-75.162756,39.973899],[-75.160597,39.973106],[-75.15855,39.974057],[-75.158661,39.9758],[-75.16082,39.976592],[-75.16082,39.976592]]]}},{"type":"Feature","properties":{"h":"892a13489d3ffff","s12":0,"s36":1,"f_poverty":88},"geometry":{"type":"Polygon","coordinates":[[[-75.167296,39.978969],[-75.169344,39.978019],[-75.169232,39.976276],[-75.167073,39.975483],[-75.165026,39.976434],[-75.165137,39.978177],[-75.167296,39.978969],[-75.167296,39.978969]]]}},{"type":"Feature","properties":{"h":"892a13489d7ffff","s12":1,"s36":4,"f_poverty":63},"geometry":{"type":"Polygon","coordinates":[[[-75.165026,39.976434],[-75.167073,39.975483],[-75.166962,39.97374],[-75.164803,39.972948],[-75.162756,39.973899],[-75.162867,39.975642],[-75.165026,39.976434],[-75.165026,39.976434]]]}},{"type":"Feature","properties":{"h":"892a1348c23ffff","s12":2,"s36":6,"f_poverty":50},"geometry":{"type":"Polygon","coordinates":[[[-75.166364,39.997354],[-75.168412,39.996403],[-75.1683,39.99466],[-75.166141,39.993867],[-75.164093,39.994818],[-75.164204,39.996562],[-75.166364,39.997354],[-75.166364,39.997354]]]}},{"type":"Feature","properties":{"h":"892a1348c27ffff","s12":1,"s36":5,"f_poverty":76},"geometry":{"type":"Polygon","coordinates":[[[-75.164093,39.994818],[-75.166141,39.993867],[-75.166029,39.992124],[-75.16387,39.991331],[-75.161822,39.992282],[-75.161933,39.994025],[-75.164093,39.994818],[-75.164093,39.994818]]]}},{"type":"Feature","properties":{"h":"892a1348c2fffff","s12":0,"s36":1,"f_poverty":82},"geometry":{"type":"Polygon","coordinates":[[[-75.1683,39.99466],[-75.170348,39.993709],[-75.170237,39.991965],[-75.168077,39.991173],[-75.166029,39.992124],[-75.166141,39.993867],[-75.1683,39.99466],[-75.1683,39.99466]]]}},{"type":"Feature","properties":{"h":"892a1348c33ffff","s12":1,"s36":3,"f_poverty":87},"geometry":{"type":"Polygon","coordinates":[[[-75.164427,40.000049],[-75.166475,39.999098],[-75.166364,39.997354],[-75.164204,39.996562],[-75.162156,39.997513],[-75.162267,39.999256],[-75.164427,40.000049],[-75.164427,40.000049]]]}},{"type":"Feature","properties":{"h":"892a1348c37ffff","s12":0,"s36":3,"f_poverty":64},"geometry":{"type":"Polygon","coordinates":[[[-75.162156,39.997513],[-75.164204,39.996562],[-75.164093,39.994818],[-75.161933,39.994025],[-75.159885,39.994976],[-75.159996,39.99672],[-75.162156,39.997513],[-75.162156,39.997513]]]}},{"type":"Feature","properties":{"h":"892a1348ca7ffff","s12":1,"s36":5,"f_poverty":85},"geometry":{"type":"Polygon","coordinates":[[[-75.156011,40.000365],[-75.158059,39.999414],[-75.157948,39.997671],[-75.155788,39.996878],[-75.15374,39.997829],[-75.153851,39.999573],[-75.156011,40.000365],[-75.156011,40.000365]]]}},{"type":"Feature","properties":{"h":"892a1348cafffff","s12":0,"s36":2,"f_poverty":80},"geometry":{"type":"Polygon","coordinates":[[[-75.160219,40.000207],[-75.162267,39.999256],[-75.162156,39.997513],[-75.159996,39.99672],[-75.157948,39.997671],[-75.158059,39.999414],[-75.160219,40.000207],[-75.160219,40.000207]]]}},{"type":"Feature","properties":{"h":"892a1348d03ffff","s12":3,"s36":9,"f_poverty":84},"geometry":{"type":"Polygon","coordinates":[[[-75.153074,39.987368],[-75.155122,39.986417],[-75.155011,39.984674],[-75.152852,39.983881],[-75.150804,39.984832],[-75.150915,39.986575],[-75.153074,39.987368],[-75.153074,39.987368]]]}},{"type":"Feature","properties":{"h":"892a1348d07ffff","s12":4,"s36":13,"f_poverty":65},"geometry":{"type":"Polygon","coordinates":[[[-75.150804,39.984832],[-75.152852,39.983881],[-75.152741,39.982138],[-75.150582,39.981345],[-75.148534,39.982296],[-75.148645,39.984039],[-75.150804,39.984832],[-75.150804,39.984832]]]}},{"type":"Feature","properties":{"h":"892a1348d0bffff","s12":1,"s36":4,"f_poverty":75},"geometry":{"type":"Polygon","coordinates":[[[-75.157281,39.98721],[-75.159329,39.986259],[-75.159217,39.984516],[-75.157058,39.983723],[-75.155011,39.984674],[-75.155122,39.986417],[-75.157281,39.98721],[-75.157281,39.98721]]]}},{"type":"Feature","properties":{"h":"892a1348d0fffff","s12":0,"s36":3,"f_poverty":57},"geometry":{"type":"Polygon","coordinates":[[[-75.155011,39.984674],[-75.157058,39.983723],[-75.156947,39.98198],[-75.154788,39.981187],[-75.152741,39.982138],[-75.152852,39.983881],[-75.155011,39.984674],[-75.155011,39.984674]]]}},{"type":"Feature","properties":{"h":"892a1348d13ffff","s12":2,"s36":6,"f_poverty":57},"geometry":{"type":"Polygon","coordinates":[[[-75.151137,39.990062],[-75.153185,39.989111],[-75.153074,39.987368],[-75.150915,39.986575],[-75.148867,39.987526],[-75.148977,39.989269],[-75.151137,39.990062],[-75.151137,39.990062]]]}},{"type":"Feature","properties":{"h":"892a1348d17ffff","s12":3,"s36":8,"f_poverty":64},"geometry":{"type":"Polygon","coordinates":[[[-75.148867,39.987526],[-75.150915,39.986575],[-75.150804,39.984832],[-75.148645,39.984039],[-75.146597,39.98499],[-75.146708,39.986733],[-75.148867,39.987526],[-75.148867,39.987526]]]}},{"type":"Feature","properties":{"h":"892a1348d1bffff","s12":2,"s36":8,"f_poverty":71},"geometry":{"type":"Polygon","coordinates":[[[-75.155344,39.989904],[-75.157392,39.988953],[-75.157281,39.98721],[-75.155122,39.986417],[-75.153074,39.987368],[-75.153185,39.989111],[-75.155344,39.989904],[-75.155344,39.989904]]]}},{"type":"Feature","properties":{"h":"892a1348d23ffff","s12":5,"s36":13,"f_poverty":94},"geometry":{"type":"Polygon","coordinates":[[[-75.150471,39.979602],[-75.152519,39.978652],[-75.152408,39.976909],[-75.150249,39.976116],[-75.148202,39.977066],[-75.148312,39.97881],[-75.150471,39.979602],[-75.150471,39.979602]]]}},{"type":"Feature","properties":{"h":"892a1348d27ffff","s12":7,"s36":18,"f_poverty":74},"geometry":{"type":"Polygon","coordinates":[[[-75.148202,39.977066],[-75.150249,39.976116],[-75.150138,39.974373],[-75.14798,39.97358],[-75.145932,39.974531],[-75.146043,39.976274],[-75.148202,39.977066],[-75.148202,39.977066]]]}},{"type":"Feature","properties":{"h":"892a1348d2bffff","s12":0,"s36":1,"f_poverty":92},"geometry":{"type":"Polygon","coordinates":[[[-75.154677,39.979444],[-75.156725,39.978494],[-75.156614,39.976751],[-75.154455,39.975958],[-75.152408,39.976909],[-75.152519,39.978652],[-75.154677,39.979444],[-75.154677,39.979444]]]}},{"type":"Feature","properties":{"h":"892a1348d2fffff","s12":5,"s36":13,"f_poverty":94},"geometry":{"type":"Polygon","coordinates":[[[-75.152408,39.976909],[-75.154455,39.975958],[-75.154344,39.974215],[-75.152186,39.973422],[-75.150138,39.974373],[-75.150249,39.976116],[-75.152408,39.976909],[-75.152408,39.976909]]]}},{"type":"Feature","properties":{"h":"892a1348d33ffff","s12":0,"s36":1,"f_poverty":85},"geometry":{"type":"Polygon","coordinates":[[[-75.148534,39.982296],[-75.150582,39.981345],[-75.150471,39.979602],[-75.148312,39.97881],[-75.146265,39.97976],[-75.146375,39.981503],[-75.148534,39.982296],[-75.148534,39.982296]]]}},{"type":"Feature","properties":{"h":"892a1348d37ffff","s12":8,"s36":23,"f_poverty":41},"geometry":{"type":"Polygon","coordinates":[[[-75.146265,39.97976],[-75.148312,39.97881],[-75.148202,39.977066],[-75.146043,39.976274],[-75.143995,39.977224],[-75.144106,39.978967],[-75.146265,39.97976],[-75.146265,39.97976]]]}},{"type":"Feature","properties":{"h":"892a1348d3bffff","s12":0,"s36":1,"f_poverty":76},"geometry":{"type":"Polygon","coordinates":[[[-75.152741,39.982138],[-75.154788,39.981187],[-75.154677,39.979444],[-75.152519,39.978652],[-75.150471,39.979602],[-75.150582,39.981345],[-75.152741,39.982138],[-75.152741,39.982138]]]}},{"type":"Feature","properties":{"h":"892a1348d43ffff","s12":2,"s36":6,"f_poverty":64},"geometry":{"type":"Polygon","coordinates":[[[-75.163758,39.989588],[-75.165806,39.988637],[-75.165695,39.986893],[-75.163536,39.986101],[-75.161488,39.987052],[-75.161599,39.988795],[-75.163758,39.989588],[-75.163758,39.989588]]]}},{"type":"Feature","properties":{"h":"892a1348d47ffff","s12":0,"s36":2,"f_poverty":48},"geometry":{"type":"Polygon","coordinates":[[[-75.161488,39.987052],[-75.163536,39.986101],[-75.163424,39.984358],[-75.161265,39.983565],[-75.159217,39.984516],[-75.159329,39.986259],[-75.161488,39.987052],[-75.161488,39.987052]]]}},{"type":"Feature","properties":{"h":"892a1348d4bffff","s12":0,"s36":3,"f_poverty":82},"geometry":{"type":"Polygon","coordinates":[[[-75.167966,39.989429],[-75.170013,39.988478],[-75.169902,39.986735],[-75.167742,39.985942],[-75.165695,39.986893],[-75.165806,39.988637],[-75.167966,39.989429],[-75.167966,39.989429]]]}},{"type":"Feature","properties":{"h":"892a1348d4fffff","s12":0,"s36":2,"f_poverty":75},"geometry":{"type":"Polygon","coordinates":[[[-75.165695,39.986893],[-75.167742,39.985942],[-75.167631,39.984199],[-75.165472,39.983407],[-75.163424,39.984358],[-75.163536,39.986101],[-75.165695,39.986893],[-75.165695,39.986893]]]}},{"type":"Feature","properties":{"h":"892a1348d53ffff","s12":0,"s36":1,"f_poverty":47},"geometry":{"type":"Polygon","coordinates":[[[-75.161822,39.992282],[-75.16387,39.991331],[-75.163758,39.989588],[-75.161599,39.988795],[-75.159551,39.989746],[-75.159662,39.991489],[-75.161822,39.992282],[-75.161822,39.992282]]]}},{"type":"Feature","properties":{"h":"892a1348d57ffff","s12":1,"s36":4,"f_poverty":55},"geometry":{"type":"Polygon","coordinates":[[[-75.159551,39.989746],[-75.161599,39.988795],[-75.161488,39.987052],[-75.159329,39.986259],[-75.157281,39.98721],[-75.157392,39.988953],[-75.159551,39.989746],[-75.159551,39.989746]]]}},{"type":"Feature","properties":{"h":"892a1348d5bffff","s12":1,"s36":4,"f_poverty":72},"geometry":{"type":"Polygon","coordinates":[[[-75.166029,39.992124],[-75.168077,39.991173],[-75.167966,39.989429],[-75.165806,39.988637],[-75.163758,39.989588],[-75.16387,39.991331],[-75.166029,39.992124],[-75.166029,39.992124]]]}},{"type":"Feature","properties":{"h":"892a1348d63ffff","s12":2,"s36":6,"f_poverty":55},"geometry":{"type":"Polygon","coordinates":[[[-75.161154,39.981822],[-75.163201,39.980871],[-75.16309,39.979128],[-75.160931,39.978335],[-75.158884,39.979286],[-75.158995,39.981029],[-75.161154,39.981822],[-75.161154,39.981822]]]}},{"type":"Feature","properties":{"h":"892a1348d67ffff","s12":0,"s36":1,"f_poverty":51},"geometry":{"type":"Polygon","coordinates":[[[-75.158884,39.979286],[-75.160931,39.978335],[-75.16082,39.976592],[-75.158661,39.9758],[-75.156614,39.976751],[-75.156725,39.978494],[-75.158884,39.979286],[-75.158884,39.979286]]]}},{"type":"Feature","properties":{"h":"892a1348d6bffff","s12":1,"s36":5,"f_poverty":63},"geometry":{"type":"Polygon","coordinates":[[[-75.16536,39.981664],[-75.167408,39.980713],[-75.167296,39.978969],[-75.165137,39.978177],[-75.16309,39.979128],[-75.163201,39.980871],[-75.16536,39.981664],[-75.16536,39.981664]]]}},{"type":"Feature","properties":{"h":"892a1348d6fffff","s12":0,"s36":0,"f_poverty":73},"geometry":{"type":"Polygon","coordinates":[[[-75.16309,39.979128],[-75.165137,39.978177],[-75.165026,39.976434],[-75.162867,39.975642],[-75.16082,39.976592],[-75.160931,39.978335],[-75.16309,39.979128],[-75.16309,39.979128]]]}},{"type":"Feature","properties":{"h":"892a1348d73ffff","s12":2,"s36":7,"f_poverty":44},"geometry":{"type":"Polygon","coordinates":[[[-75.159217,39.984516],[-75.161265,39.983565],[-75.161154,39.981822],[-75.158995,39.981029],[-75.156947,39.98198],[-75.157058,39.983723],[-75.159217,39.984516],[-75.159217,39.984516]]]}},{"type":"Feature","properties":{"h":"892a1348d77ffff","s12":0,"s36":2,"f_poverty":59},"geometry":{"type":"Polygon","coordinates":[[[-75.156947,39.98198],[-75.158995,39.981029],[-75.158884,39.979286],[-75.156725,39.978494],[-75.154677,39.979444],[-75.154788,39.981187],[-75.156947,39.98198],[-75.156947,39.98198]]]}},{"type":"Feature","properties":{"h":"892a1348d7bffff","s12":0,"s36":2,"f_poverty":86},"geometry":{"type":"Polygon","coordinates":[[[-75.163424,39.984358],[-75.165472,39.983407],[-75.16536,39.981664],[-75.163201,39.980871],[-75.161154,39.981822],[-75.161265,39.983565],[-75.163424,39.984358],[-75.163424,39.984358]]]}},{"type":"Feature","properties":{"h":"892a1348d83ffff","s12":0,"s36":1,"f_poverty":68},"geometry":{"type":"Polygon","coordinates":[[[-75.144992,39.992914],[-75.14704,39.991963],[-75.146929,39.99022],[-75.14477,39.989427],[-75.142722,39.990378],[-75.142832,39.992121],[-75.144992,39.992914],[-75.144992,39.992914]]]}},{"type":"Feature","properties":{"h":"892a1348d87ffff","s12":4,"s36":10,"f_poverty":67},"geometry":{"type":"Polygon","coordinates":[[[-75.142722,39.990378],[-75.14477,39.989427],[-75.144659,39.987684],[-75.142501,39.986891],[-75.140452,39.987841],[-75.140563,39.989585],[-75.142722,39.990378],[-75.142722,39.990378]]]}},{"type":"Feature","properties":{"h":"892a1348d8bffff","s12":6,"s36":16,"f_poverty":71},"geometry":{"type":"Polygon","coordinates":[[[-75.149199,39.992756],[-75.151247,39.991806],[-75.151137,39.990062],[-75.148977,39.989269],[-75.146929,39.99022],[-75.14704,39.991963],[-75.149199,39.992756],[-75.149199,39.992756]]]}},{"type":"Feature","properties":{"h":"892a1348d8fffff","s12":4,"s36":11,"f_poverty":73},"geometry":{"type":"Polygon","coordinates":[[[-75.146929,39.99022],[-75.148977,39.989269],[-75.148867,39.987526],[-75.146708,39.986733],[-75.144659,39.987684],[-75.14477,39.989427],[-75.146929,39.99022],[-75.146929,39.99022]]]}},{"type":"Feature","properties":{"h":"892a1348d93ffff","s12":3,"s36":9,"f_poverty":79},"geometry":{"type":"Polygon","coordinates":[[[-75.143054,39.995608],[-75.145102,39.994658],[-75.144992,39.992914],[-75.142832,39.992121],[-75.140784,39.993072],[-75.140895,39.994815],[-75.143054,39.995608],[-75.143054,39.995608]]]}},{"type":"Feature","properties":{"h":"892a1348d97ffff","s12":0,"s36":2,"f_poverty":46},"geometry":{"type":"Polygon","coordinates":[[[-75.140784,39.993072],[-75.142832,39.992121],[-75.142722,39.990378],[-75.140563,39.989585],[-75.138514,39.990535],[-75.138625,39.992279],[-75.140784,39.993072],[-75.140784,39.993072]]]}},{"type":"Feature","properties":{"h":"892a1348d9bffff","s12":3,"s36":8,"f_poverty":89},"geometry":{"type":"Polygon","coordinates":[[[-75.147262,39.99545],[-75.14931,39.9945],[-75.149199,39.992756],[-75.14704,39.991963],[-75.144992,39.992914],[-75.145102,39.994658],[-75.147262,39.99545],[-75.147262,39.99545]]]}},{"type":"Feature","properties":{"h":"892a1348da3ffff","s12":6,"s36":16,"f_poverty":77},"geometry":{"type":"Polygon","coordinates":[[[-75.14239,39.985147],[-75.144438,39.984197],[-75.144327,39.982454],[-75.142169,39.981661],[-75.140121,39.982611],[-75.140231,39.984355],[-75.14239,39.985147],[-75.14239,39.985147]]]}},{"type":"Feature","properties":{"h":"892a1348da7ffff","s12":5,"s36":15,"f_poverty":44},"geometry":{"type":"Polygon","coordinates":[[[-75.140121,39.982611],[-75.142169,39.981661],[-75.142058,39.979918],[-75.1399,39.979125],[-75.137852,39.980075],[-75.137962,39.981818],[-75.140121,39.982611],[-75.140121,39.982611]]]}},{"type":"Feature","properties":{"h":"892a1348dabffff","s12":6,"s36":16,"f_poverty":49},"geometry":{"type":"Polygon","coordinates":[[[-75.146597,39.98499],[-75.148645,39.984039],[-75.148534,39.982296],[-75.146375,39.981503],[-75.144327,39.982454],[-75.144438,39.984197],[-75.146597,39.98499],[-75.146597,39.98499]]]}},{"type":"Feature","properties":{"h":"892a1348dafffff","s12":2,"s36":5,"f_poverty":79},"geometry":{"type":"Polygon","coordinates":[[[-75.144327,39.982454],[-75.146375,39.981503],[-75.146265,39.97976],[-75.144106,39.978967],[-75.142058,39.979918],[-75.142169,39.981661],[-75.144327,39.982454],[-75.144327,39.982454]]]}},{"type":"Feature","properties":{"h":"892a1348db3ffff","s12":0,"s36":3,"f_poverty":55},"geometry":{"type":"Polygon","coordinates":[[[-75.140452,39.987841],[-75.142501,39.986891],[-75.14239,39.985147],[-75.140231,39.984355],[-75.138183,39.985305],[-75.138294,39.987048],[-75.140452,39.987841],[-75.140452,39.987841]]]}},{"type":"Feature","properties":{"h":"892a1348db7ffff","s12":2,"s36":6,"f_poverty":81},"geometry":{"type":"Polygon","coordinates":[[[-75.138183,39.985305],[-75.140231,39.984355],[-75.140121,39.982611],[-75.137962,39.981818],[-75.135914,39.982769],[-75.136024,39.984512],[-75.138183,39.985305],[-75.138183,39.985305]]]}},{"type":"Feature","properties":{"h":"892a1348dbbffff","s12":6,"s36":15,"f_poverty":77},"geometry":{"type":"Polygon","coordinates":[[[-75.144659,39.987684],[-75.146708,39.986733],[-75.146597,39.98499],[-75.144438,39.984197],[-75.14239,39.985147],[-75.142501,39.986891],[-75.144659,39.987684],[-75.144659,39.987684]]]}},{"type":"Feature","properties":{"h":"892a1348dc3ffff","s12":1,"s36":5,"f_poverty":90},"geometry":{"type":"Polygon","coordinates":[[[-75.155677,39.995135],[-75.157725,39.994184],[-75.157614,39.99244],[-75.155455,39.991648],[-75.153407,39.992598],[-75.153518,39.994342],[-75.155677,39.995135],[-75.155677,39.995135]]]}},{"type":"Feature","properties":{"h":"892a1348dc7ffff","s12":0,"s36":0,"f_poverty":72},"geometry":{"type":"Polygon","coordinates":[[[-75.153407,39.992598],[-75.155455,39.991648],[-75.155344,39.989904],[-75.153185,39.989111],[-75.151137,39.990062],[-75.151247,39.991806],[-75.153407,39.992598],[-75.153407,39.992598]]]}},{"type":"Feature","properties":{"h":"892a1348dcbffff","s12":0,"s36":2,"f_poverty":87},"geometry":{"type":"Polygon","coordinates":[[[-75.159885,39.994976],[-75.161933,39.994025],[-75.161822,39.992282],[-75.159662,39.991489],[-75.157614,39.99244],[-75.157725,39.994184],[-75.159885,39.994976],[-75.159885,39.994976]]]}},{"type":"Feature","properties":{"h":"892a1348dcfffff","s12":1,"s36":5,"f_poverty":56},"geometry":{"type":"Polygon","coordinates":[[[-75.157614,39.99244],[-75.159662,39.991489],[-75.159551,39.989746],[-75.157392,39.988953],[-75.155344,39.989904],[-75.155455,39.991648],[-75.157614,39.99244],[-75.157614,39.99244]]]}},{"type":"Feature","properties":{"h":"892a1348dd3ffff","s12":0,"s36":3,"f_poverty":77},"geometry":{"type":"Polygon","coordinates":[[[-75.15374,39.997829],[-75.155788,39.996878],[-75.155677,39.995135],[-75.153518,39.994342],[-75.151469,39.995293],[-75.15158,39.997036],[-75.15374,39.997829],[-75.15374,39.997829]]]}},{"type":"Feature","properties":{"h":"892a1348dd7ffff","s12":0,"s36":1,"f_poverty":51},"geometry":{"type":"Polygon","coordinates":[[[-75.151469,39.995293],[-75.153518,39.994342],[-75.153407,39.992598],[-75.151247,39.991806],[-75.149199,39.992756],[-75.14931,39.9945],[-75.151469,39.995293],[-75.151469,39.995293]]]}},{"type":"Feature","properties":{"h":"892a1348ddbffff","s12":1,"s36":4,"f_poverty":51},"geometry":{"type":"Polygon","coordinates":[[[-75.157948,39.997671],[-75.159996,39.99672],[-75.159885,39.994976],[-75.157725,39.994184],[-75.155677,39.995135],[-75.155788,39.996878],[-75.157948,39.997671],[-75.157948,39.997671]]]}},{"type":"Feature","properties":{"h":"892a134ab2bffff","s12":4,"s36":12,"f_poverty":45},"geometry":{"type":"Polygon","coordinates":[[[-75.141116,39.998302],[-75.143164,39.997352],[-75.143054,39.995608],[-75.140895,39.994815],[-75.138846,39.995766],[-75.138956,39.997509],[-75.141116,39.998302],[-75.141116,39.998302]]]}},{"type":"Feature","properties":{"h":"892a134ab2fffff","s12":7,"s36":18,"f_poverty":47},"geometry":{"type":"Polygon","coordinates":[[[-75.138846,39.995766],[-75.140895,39.994815],[-75.140784,39.993072],[-75.138625,39.992279],[-75.136576,39.993229],[-75.136687,39.994973],[-75.138846,39.995766],[-75.138846,39.995766]]]}},{"type":"Feature","properties":{"h":"892a134ab63ffff","s12":0,"s36":2,"f_poverty":63},"geometry":{"type":"Polygon","coordinates":[[[-75.147594,40.000681],[-75.149643,39.99973],[-75.149532,39.997987],[-75.147372,39.997194],[-75.145324,39.998145],[-75.145435,39.999888],[-75.147594,40.000681],[-75.147594,40.000681]]]}},{"type":"Feature","properties":{"h":"892a134ab67ffff","s12":4,"s36":13,"f_poverty":70},"geometry":{"type":"Polygon","coordinates":[[[-75.145324,39.998145],[-75.147372,39.997194],[-75.147262,39.99545],[-75.145102,39.994658],[-75.143054,39.995608],[-75.143164,39.997352],[-75.145324,39.998145],[-75.145324,39.998145]]]}},{"type":"Feature","properties":{"h":"892a134ab6bffff","s12":0,"s36":2,"f_poverty":84},"geometry":{"type":"Polygon","coordinates":[[[-75.151802,40.000523],[-75.153851,39.999573],[-75.15374,39.997829],[-75.15158,39.997036],[-75.149532,39.997987],[-75.149643,39.99973],[-75.151802,40.000523],[-75.151802,40.000523]]]}},{"type":"Feature","properties":{"h":"892a134ab6fffff","s12":6,"s36":17,"f_poverty":87},"geometry":{"type":"Polygon","coordinates":[[[-75.149532,39.997987],[-75.15158,39.997036],[-75.151469,39.995293],[-75.14931,39.9945],[-75.147262,39.99545],[-75.147372,39.997194],[-75.149532,39.997987],[-75.149532,39.997987]]]}},{"type":"Feature","properties":{"h":"892a134ab77ffff","s12":0,"s36":1,"f_poverty":73},"geometry":{"type":"Polygon","coordinates":[[[-75.143386,40.000839],[-75.145435,39.999888],[-75.145324,39.998145],[-75.143164,39.997352],[-75.141116,39.998302],[-75.141226,40.000046],[-75.143386,40.000839],[-75.143386,40.000839]]]}},{"type":"Feature","properties":{"h":"892a134f253ffff","s12":5,"s36":13,"f_poverty":84},"geometry":{"type":"Polygon","coordinates":[[[-75.145932,39.974531],[-75.14798,39.97358],[-75.147869,39.971837],[-75.145711,39.971045],[-75.143663,39.971995],[-75.143774,39.973738],[-75.145932,39.974531],[-75.145932,39.974531]]]}},{"type":"Feature","properties":{"h":"892a134f25bffff","s12":5,"s36":15,"f_poverty":94},"geometry":{"type":"Polygon","coordinates":[[[-75.150138,39.974373],[-75.152186,39.973422],[-75.152075,39.971679],[-75.149917,39.970887],[-75.147869,39.971837],[-75.14798,39.97358],[-75.150138,39.974373],[-75.150138,39.974373]]]}},{"type":"Feature","properties":{"h":"892a134f2c3ffff","s12":3,"s36":8,"f_poverty":79},"geometry":{"type":"Polygon","coordinates":[[[-75.139789,39.977382],[-75.141837,39.976431],[-75.141726,39.974688],[-75.139568,39.973896],[-75.13752,39.974846],[-75.137631,39.976589],[-75.139789,39.977382],[-75.139789,39.977382]]]}},{"type":"Feature","properties":{"h":"892a134f2cbffff","s12":0,"s36":2,"f_poverty":42},"geometry":{"type":"Polygon","coordinates":[[[-75.143995,39.977224],[-75.146043,39.976274],[-75.145932,39.974531],[-75.143774,39.973738],[-75.141726,39.974688],[-75.141837,39.976431],[-75.143995,39.977224],[-75.143995,39.977224]]]}},{"type":"Feature","properties":{"h":"892a134f2cfffff","s12":8,"s36":22,"f_poverty":84},"geometry":{"type":"Polygon","coordinates":[[[-75.141726,39.974688],[-75.143774,39.973738],[-75.143663,39.971995],[-75.141505,39.971202],[-75.139458,39.972152],[-75.139568,39.973896],[-75.141726,39.974688],[-75.141726,39.974688]]]}},{"type":"Feature","properties":{"h":"892a134f2d3ffff","s12":0,"s36":3,"f_poverty":42},"geometry":{"type":"Polygon","coordinates":[[[-75.137852,39.980075],[-75.1399,39.979125],[-75.139789,39.977382],[-75.137631,39.976589],[-75.135583,39.977539],[-75.135693,39.979282],[-75.137852,39.980075],[-75.137852,39.980075]]]}},{"type":"Feature","properties":{"h":"892a134f2dbffff","s12":0,"s36":1,"f_poverty":58},"geometry":{"type":"Polygon","coordinates":[[[-75.142058,39.979918],[-75.144106,39.978967],[-75.143995,39.977224],[-75.141837,39.976431],[-75.139789,39.977382],[-75.1399,39.979125],[-75.142058,39.979918],[-75.142058,39.979918]]]}},{"type":"Feature","properties":{"h":"892a134f643ffff","s12":3,"s36":10,"f_poverty":93},"geometry":{"type":"Polygon","coordinates":[[[-75.134307,39.990693],[-75.136356,39.989742],[-75.136245,39.987999],[-75.134086,39.987206],[-75.132038,39.988156],[-75.132148,39.989899],[-75.134307,39.990693],[-75.134307,39.990693]]]}},{"type":"Feature","properties":{"h":"892a134f647ffff","s12":5,"s36":15,"f_poverty":79},"geometry":{"type":"Polygon","coordinates":[[[-75.132038,39.988156],[-75.134086,39.987206],[-75.133976,39.985462],[-75.131818,39.984669],[-75.129769,39.98562],[-75.129879,39.987363],[-75.132038,39.988156],[-75.132038,39.988156]]]}},{"type":"Feature","properties":{"h":"892a134f64bffff","s12":6,"s36":16,"f_poverty":89},"geometry":{"type":"Polygon","coordinates":[[[-75.138514,39.990535],[-75.140563,39.989585],[-75.140452,39.987841],[-75.138294,39.987048],[-75.136245,39.987999],[-75.136356,39.989742],[-75.138514,39.990535],[-75.138514,39.990535]]]}},{"type":"Feature","properties":{"h":"892a134f64fffff","s12":0,"s36":1,"f_poverty":58},"geometry":{"type":"Polygon","coordinates":[[[-75.136245,39.987999],[-75.138294,39.987048],[-75.138183,39.985305],[-75.136024,39.984512],[-75.133976,39.985462],[-75.134086,39.987206],[-75.136245,39.987999],[-75.136245,39.987999]]]}},{"type":"Feature","properties":{"h":"892a134f65bffff","s12":8,"s36":22,"f_poverty":42},"geometry":{"type":"Polygon","coordinates":[[[-75.136576,39.993229],[-75.138625,39.992279],[-75.138514,39.990535],[-75.136356,39.989742],[-75.134307,39.990693],[-75.134417,39.992436],[-75.136576,39.993229],[-75.136576,39.993229]]]}},{"type":"Feature","properties":{"h":"892a134f66bffff","s12":5,"s36":15,"f_poverty":42},"geometry":{"type":"Polygon","coordinates":[[[-75.135914,39.982769],[-75.137962,39.981818],[-75.137852,39.980075],[-75.135693,39.979282],[-75.133645,39.980233],[-75.133756,39.981976],[-75.135914,39.982769],[-75.135914,39.982769]]]}},{"type":"Feature","properties":{"h":"892a134f67bffff","s12":8,"s36":22,"f_poverty":84},"geometry":{"type":"Polygon","coordinates":[[[-75.133976,39.985462],[-75.136024,39.984512],[-75.135914,39.982769],[-75.133756,39.981976],[-75.131707,39.982926],[-75.131818,39.984669],[-75.133976,39.985462],[-75.133976,39.985462]]]}}]}
