{"type":"FeatureCollection","features":[{"type":"Feature","properties":{"id":"hin_fixture_1","name":"N Broad St","len":8614},"geometry":{"type":"LineString","coordinates":[[-75.1603,39.976],[-75.1594,39.984],[-75.1585,39.992],[-75.1577,39.9995]]}},{"type":"Feature","properties":{"id":"hin_fixture_2","name":"W Lehigh Ave","len":8991},"geometry":{"type":"LineString","coordinates":[[-75.168,39.9905],[-75.158,39.9912],[-75.146,39.992],[-75.136,39.9927]]}},{"type":"Feature","properties":{"id":"hin_fixture_3","name":"Germantown Ave","len":8541},"geometry":{"type":"LineString","coordinates":[[-75.1395,39.979],[-75.1455,39.9845],[-75.152,39.99],[-75.158,39.9975]]}}]}
