{"type":"FeatureCollection","features":[{"type":"Feature","properties":{"nm":"Sample Community Garden","src":3,"w":"https://example.org/sample-garden"},"geometry":{"type":"Point","coordinates":[-75.156593,39.986428]}},{"type":"Feature","properties":{"nm":"Sample Farm","src":1},"geometry":{"type":"Point","coordinates":[-75.154366,39.986177]}},{"type":"Feature","properties":{"nm":"Sample Trust Garden","src":2},"geometry":{"type":"Point","coordinates":[-75.152138,39.985835]}},{"type":"Feature","properties":{"nm":"Sample Park Garden","src":4},"geometry":{"type":"Point","coordinates":[-75.14991,39.985701]}}]}
