{"type":"FeatureCollection","features":[{"type":"Feature","properties":{"id":"990000002","p":2,"y":2024},"geometry":{"type":"Polygon","coordinates":[[[-75.157578,39.985153],[-75.157519,39.985153],[-75.157519,39.985377],[-75.157578,39.985377],[-75.157578,39.985153]]]}},{"type":"Feature","properties":{"id":"990000012","p":1,"y":2013},"geometry":{"type":"Polygon","coordinates":[[[-75.153603,39.985072],[-75.153545,39.985072],[-75.153545,39.985296],[-75.153603,39.985296],[-75.153603,39.985072]]]}},{"type":"Feature","properties":{"id":"990000014","p":1,"y":2015},"geometry":{"type":"Polygon","coordinates":[[[-75.15195,39.985153],[-75.151892,39.985153],[-75.151892,39.985377],[-75.15195,39.985377],[-75.15195,39.985153]]]}},{"type":"Feature","properties":{"id":"990000038","p":2,"y":2020},"geometry":{"type":"Polygon","coordinates":[[[-75.153557,39.986347],[-75.153498,39.986347],[-75.153498,39.986572],[-75.153557,39.986572],[-75.153557,39.986347]]]}},{"type":"Feature","properties":{"id":"990000043","p":1,"y":2015},"geometry":{"type":"Polygon","coordinates":[[[-75.151458,39.986321],[-75.151399,39.986321],[-75.151399,39.986545],[-75.151458,39.986545],[-75.151458,39.986321]]]}},{"type":"Feature","properties":{"id":"990000049","p":1,"y":2010},"geometry":{"type":"Polygon","coordinates":[[[-75.149418,39.986213],[-75.149359,39.986213],[-75.149359,39.986437],[-75.149418,39.986437],[-75.149418,39.986213]]]}},{"type":"Feature","properties":{"id":"990000050","p":1,"y":2010},"geometry":{"type":"Polygon","coordinates":[[[-75.149359,39.986213],[-75.149301,39.986213],[-75.149301,39.986437],[-75.149359,39.986437],[-75.149359,39.986213]]]}}]}
