{"type":"FeatureCollection","features":[{"type":"Feature","properties":{"id":"990000001","k":2,"vc":3,"ot":1,"lc":0,"f_vacant":88,"f_shoot":23,"f_poverty":92,"sg":"seal_abandoned_building","rt":5,"rs":130,"n":1,"sy":2024,"f_heatvul":17,"f_strees":31,"f_people":42},"geometry":{"type":"Polygon","coordinates":[[[-75.157637,39.985153],[-75.157578,39.985153],[-75.157578,39.985377],[-75.157637,39.985377],[-75.157637,39.985153]]]}},{"type":"Feature","properties":{"id":"990000002","k":1,"vc":3,"ot":3,"lc":1,"f_vacant":36,"f_shoot":27,"f_poverty":93,"sg":"clean_and_green,plant_shade_trees","rt":1,"la":1,"rs":77,"n":3,"f_canopy":60,"f_heatvul":19,"f_strees":37,"f_people":54},"geometry":{"type":"Polygon","coordinates":[[[-75.157578,39.985153],[-75.157519,39.985153],[-75.157519,39.985377],[-75.157578,39.985377],[-75.157578,39.985153]]]}},{"type":"Feature","properties":{"id":"990000003","k":2,"vc":3,"ot":1,"lc":0,"f_vacant":88,"f_shoot":24,"f_poverty":95,"sg":"seal_abandoned_building","rt":5,"rs":130,"n":1,"sy":2024,"f_canopy":29,"f_heatvul":15,"f_strees":43,"f_people":66},"geometry":{"type":"Polygon","coordinates":[[[-75.157519,39.985153],[-75.157461,39.985153],[-75.157461,39.985377],[-75.157519,39.985377],[-75.157519,39.985153]]]}},{"type":"Feature","properties":{"id":"990000004","k":2,"vc":2,"ot":2,"lc":0,"f_vacant":55,"f_shoot":31,"f_poverty":77,"sg":"seal_abandoned_building","rt":5,"rs":65666,"n":1,"sy":2025,"f_canopy":70,"f_heatvul":37,"f_strees":25,"f_people":78},"geometry":{"type":"Polygon","coordinates":[[[-75.155808,39.985018],[-75.155749,39.985018],[-75.155749,39.985243],[-75.155808,39.985243],[-75.155808,39.985018]]]}},{"type":"Feature","properties":{"id":"990000005","k":1,"vc":3,"ot":1,"lc":0,"f_vacant":82,"f_shoot":40,"f_poverty":76,"sg":"clean_and_green","rt":5,"rs":13,"n":2,"f_canopy":1,"f_heatvul":39,"f_strees":31,"f_people":90},"geometry":{"type":"Polygon","coordinates":[[[-75.155749,39.985018],[-75.15569,39.985018],[-75.15569,39.985243],[-75.155749,39.985243],[-75.155749,39.985018]]]}},{"type":"Feature","properties":{"id":"990000006","k":1,"vc":3,"ot":1,"lc":0,"f_vacant":74,"f_shoot":36,"f_poverty":77,"sg":"clean_and_green,plant_shade_trees","rt":5,"rs":13,"n":2,"f_canopy":99,"f_heatvul":35,"f_strees":37,"f_people":30},"geometry":{"type":"Polygon","coordinates":[[[-75.15569,39.985018],[-75.155632,39.985018],[-75.155632,39.985243],[-75.15569,39.985243],[-75.15569,39.985018]]]}},{"type":"Feature","properties":{"id":"990000007","k":1,"vc":2,"ot":1,"lc":0,"f_vacant":75,"f_shoot":31,"f_poverty":76,"sg":"clean_and_green","rt":5,"rs":32781,"n":2,"f_canopy":30,"f_heatvul":37,"f_strees":43,"f_people":42},"geometry":{"type":"Polygon","coordinates":[[[-75.155632,39.985018],[-75.155573,39.985018],[-75.155573,39.985243],[-75.155632,39.985243],[-75.155632,39.985018]]]}},{"type":"Feature","properties":{"id":"990000008","k":2,"vc":3,"ot":2,"lc":0,"f_vacant":56,"f_shoot":41,"f_poverty":75,"sg":"seal_abandoned_building","rt":5,"rs":130,"n":1,"sy":2024,"f_heatvul":39,"f_strees":25,"f_people":54},"geometry":{"type":"Polygon","coordinates":[[[-75.155573,39.985018],[-75.155515,39.985018],[-75.155515,39.985243],[-75.155573,39.985243],[-75.155573,39.985018]]]}},{"type":"Feature","properties":{"id":"990000009","k":1,"vc":2,"ot":4,"lc":0,"f_vacant":56,"f_shoot":49,"f_poverty":74,"sg":"clean_and_green,plant_shade_trees","rt":2,"la":1,"rs":32781,"n":2,"f_canopy":88,"f_heatvul":35,"f_strees":31,"f_people":66},"geometry":{"type":"Polygon","coordinates":[[[-75.155515,39.985018],[-75.155456,39.985018],[-75.155456,39.985243],[-75.155515,39.985243],[-75.155515,39.985018]]]}},{"type":"Feature","properties":{"id":"990000010","k":1,"vc":3,"ot":1,"lc":0,"f_vacant":66,"f_shoot":58,"f_poverty":92,"sg":"clean_and_green,cool_green_lot","rt":5,"rs":13,"n":2,"f_heatvul":57,"f_strees":37,"f_people":78,"dw":7},"geometry":{"type":"Polygon","coordinates":[[[-75.153721,39.985072],[-75.153662,39.985072],[-75.153662,39.985296],[-75.153721,39.985296],[-75.153721,39.985072]]]}},{"type":"Feature","properties":{"id":"990000011","k":1,"vc":1,"ot":1,"lc":0,"f_vacant":58,"f_shoot":55,"f_poverty":97,"sg":"clean_and_green,plant_shade_trees,cool_green_lot","rt":5,"rs":16392,"n":1,"f_canopy":69,"f_heatvul":59,"f_strees":43,"f_people":90,"dw":7},"geometry":{"type":"Polygon","coordinates":[[[-75.153662,39.985072],[-75.153603,39.985072],[-75.153603,39.985296],[-75.153662,39.985296],[-75.153662,39.985072]]]}},{"type":"Feature","properties":{"id":"990000012","k":1,"vc":1,"ot":4,"lc":1,"f_vacant":24,"f_shoot":48,"f_poverty":91,"sg":"clean_and_green,cool_green_lot","rt":1,"rs":4164,"n":2,"ny":2023,"f_canopy":36,"f_heatvul":55,"f_strees":25,"f_people":30,"dw":7},"geometry":{"type":"Polygon","coordinates":[[[-75.153603,39.985072],[-75.153545,39.985072],[-75.153545,39.985296],[-75.153603,39.985296],[-75.153603,39.985072]]]}},{"type":"Feature","properties":{"id":"990000013","k":1,"vc":3,"ot":0,"lc":0,"f_vacant":79,"f_shoot":63,"f_poverty":95,"sg":"clean_and_green,cool_green_lot","rt":0,"rs":13,"n":2,"f_canopy":39,"f_heatvul":57,"f_strees":31,"f_people":42,"dw":7},"geometry":{"type":"Polygon","coordinates":[[[-75.153545,39.985072],[-75.153486,39.985072],[-75.153486,39.985296],[-75.153545,39.985296],[-75.153545,39.985072]]]}},{"type":"Feature","properties":{"id":"990000014","k":1,"vc":2,"ot":3,"lc":1,"f_vacant":31,"f_shoot":62,"f_poverty":68,"sg":"clean_and_green,cool_green_lot","rt":1,"rs":120,"n":4,"dy":2024,"f_heatvul":79,"f_strees":37,"f_people":54,"dw":7},"geometry":{"type":"Polygon","coordinates":[[[-75.15195,39.985153],[-75.151892,39.985153],[-75.151892,39.985377],[-75.15195,39.985377],[-75.15195,39.985153]]]}},{"type":"Feature","properties":{"id":"990000015","k":1,"vc":1,"ot":1,"lc":0,"f_vacant":86,"f_shoot":76,"f_poverty":70,"sg":"clean_and_green,cool_green_lot","rt":5,"rs":16392,"n":1,"f_canopy":6,"f_heatvul":75,"f_strees":43,"f_people":66,"dw":7},"geometry":{"type":"Polygon","coordinates":[[[-75.151892,39.985153],[-75.151833,39.985153],[-75.151833,39.985377],[-75.151892,39.985377],[-75.151892,39.985153]]]}},{"type":"Feature","properties":{"id":"990000016","k":1,"vc":1,"ot":3,"lc":0,"f_vacant":90,"f_shoot":67,"f_poverty":71,"sg":"clean_and_green,cool_green_lot","rt":2,"rs":4100,"n":1,"ny":2023,"f_canopy":28,"f_heatvul":77,"f_strees":25,"f_people":78,"dw":7},"geometry":{"type":"Polygon","coordinates":[[[-75.151833,39.985153],[-75.151775,39.985153],[-75.151775,39.985377],[-75.151833,39.985377],[-75.151833,39.985153]]]}},{"type":"Feature","properties":{"id":"990000017","k":1,"vc":2,"ot":2,"lc":0,"f_vacant":71,"f_shoot":62,"f_poverty":70,"sg":"clean_and_green,cool_green_lot","rt":5,"rs":32781,"n":2,"f_canopy":8,"f_heatvul":79,"f_strees":31,"f_people":90,"dw":7},"geometry":{"type":"Polygon","coordinates":[[[-75.151775,39.985153],[-75.151716,39.985153],[-75.151716,39.985377],[-75.151775,39.985377],[-75.151775,39.985153]]]}},{"type":"Feature","properties":{"id":"990000018","k":2,"vc":3,"ot":1,"lc":0,"f_vacant":66,"f_shoot":78,"f_poverty":70,"sg":"seal_abandoned_building","rt":5,"rs":130,"n":1,"sy":2024,"f_canopy":64,"f_heatvul":75,"f_strees":37,"f_people":30,"dw":7},"geometry":{"type":"Polygon","coordinates":[[[-75.151716,39.985153],[-75.151657,39.985153],[-75.151657,39.985377],[-75.151716,39.985377],[-75.151716,39.985153]]]}},{"type":"Feature","properties":{"id":"990000019","k":2,"vc":3,"ot":2,"lc":0,"f_vacant":56,"f_shoot":74,"f_poverty":71,"sg":"seal_abandoned_building","rt":5,"rs":130,"n":1,"sy":2024,"f_canopy":24,"f_heatvul":77,"f_strees":43,"f_people":42,"dw":7},"geometry":{"type":"Polygon","coordinates":[[[-75.151657,39.985153],[-75.151599,39.985153],[-75.151599,39.985377],[-75.151657,39.985377],[-75.151657,39.985153]]]}},{"type":"Feature","properties":{"id":"990000020","k":1,"vc":2,"ot":1,"lc":0,"f_vacant":59,"f_shoot":76,"f_poverty":68,"sg":"clean_and_green,cool_green_lot","rt":5,"rs":56,"n":3,"dy":2024,"f_canopy":23,"f_heatvul":79,"f_strees":25,"f_people":54,"dw":7},"geometry":{"type":"Polygon","coordinates":[[[-75.151599,39.985153],[-75.15154,39.985153],[-75.15154,39.985377],[-75.151599,39.985377],[-75.151599,39.985153]]]}},{"type":"Feature","properties":{"id":"990000021","k":1,"vc":2,"ot":2,"lc":0,"f_vacant":91,"f_shoot":80,"f_poverty":71,"sg":"clean_and_green,cool_green_lot","rt":5,"rs":32781,"n":2,"f_canopy":35,"f_heatvul":95,"f_strees":31,"f_people":66,"fp":1,"dw":28},"geometry":{"type":"Polygon","coordinates":[[[-75.14977,39.98518],[-75.149711,39.98518],[-75.149711,39.985404],[-75.14977,39.985404],[-75.14977,39.98518]]]}},{"type":"Feature","properties":{"id":"990000022","k":1,"vc":2,"ot":3,"lc":0,"f_vacant":55,"f_shoot":89,"f_poverty":68,"sg":"clean_and_green,plant_shade_trees,cool_green_lot","rt":2,"rs":56,"n":3,"dy":2024,"f_canopy":92,"f_heatvul":97,"f_strees":37,"f_people":78,"fp":1,"dw":28},"geometry":{"type":"Polygon","coordinates":[[[-75.149711,39.98518],[-75.149652,39.98518],[-75.149652,39.985404],[-75.149711,39.985404],[-75.149711,39.98518]]]}},{"type":"Feature","properties":{"id":"990000023","k":1,"vc":2,"ot":0,"lc":0,"f_vacant":96,"f_shoot":90,"f_poverty":70,"sg":"clean_and_green,cool_green_lot","rt":0,"rs":32781,"n":2,"f_canopy":28,"f_heatvul":99,"f_strees":43,"f_people":90,"fp":1,"dw":28},"geometry":{"type":"Polygon","coordinates":[[[-75.149652,39.98518],[-75.149594,39.98518],[-75.149594,39.985404],[-75.149652,39.985404],[-75.149652,39.98518]]]}},{"type":"Feature","properties":{"id":"990000024","k":2,"vc":3,"ot":2,"lc":0,"f_vacant":61,"f_shoot":76,"f_poverty":69,"sg":"seal_abandoned_building","rt":5,"rs":130,"n":1,"sy":2024,"f_canopy":53,"f_heatvul":95,"f_strees":25,"f_people":30,"fp":1,"dw":28},"geometry":{"type":"Polygon","coordinates":[[[-75.149594,39.98518],[-75.149535,39.98518],[-75.149535,39.985404],[-75.149594,39.985404],[-75.149594,39.98518]]]}},{"type":"Feature","properties":{"id":"990000025","k":1,"vc":3,"ot":1,"lc":0,"f_vacant":59,"f_shoot":90,"f_poverty":69,"sg":"clean_and_green,cool_green_lot","rt":5,"rs":13,"n":2,"f_canopy":48,"f_heatvul":97,"f_strees":31,"f_people":42,"fp":1,"dw":28},"geometry":{"type":"Polygon","coordinates":[[[-75.149535,39.98518],[-75.149477,39.98518],[-75.149477,39.985404],[-75.149535,39.985404],[-75.149535,39.98518]]]}},{"type":"Feature","properties":{"id":"990000026","k":1,"vc":3,"ot":4,"lc":0,"f_vacant":88,"f_shoot":22,"f_poverty":64,"sg":"clean_and_green,plant_shade_trees","rt":2,"rs":13,"n":2,"f_canopy":84,"f_heatvul":19,"f_strees":72,"f_people":54},"geometry":{"type":"Polygon","coordinates":[[[-75.157754,39.986294],[-75.157695,39.986294],[-75.157695,39.986518],[-75.157754,39.986518],[-75.157754,39.986294]]]}},{"type":"Feature","properties":{"id":"990000027","k":2,"vc":2,"ot":4,"lc":0,"f_vacant":96,"f_shoot":17,"f_poverty":60,"sg":"seal_abandoned_building","rt":2,"rs":256,"n":1,"f_canopy":90,"f_heatvul":15,"f_strees":78,"f_people":66},"geometry":{"type":"Polygon","coordinates":[[[-75.157695,39.986294],[-75.157637,39.986294],[-75.157637,39.986518],[-75.157695,39.986518],[-75.157695,39.986294]]]}},{"type":"Feature","properties":{"id":"990000028","k":1,"vc":3,"ot":2,"lc":0,"f_vacant":83,"f_shoot":16,"f_poverty":61,"sg":"clean_and_green","rt":5,"rs":13,"n":2,"f_canopy":17,"f_heatvul":17,"f_strees":60,"f_people":78},"geometry":{"type":"Polygon","coordinates":[[[-75.157637,39.986294],[-75.157578,39.986294],[-75.157578,39.986518],[-75.157637,39.986518],[-75.157637,39.986294]]]}},{"type":"Feature","properties":{"id":"990000029","k":2,"vc":2,"ot":5,"lc":0,"f_vacant":85,"f_shoot":34,"f_poverty":59,"sg":"seal_abandoned_building","rt":3,"rs":256,"n":1,"f_heatvul":19,"f_strees":66,"f_people":90},"geometry":{"type":"Polygon","coordinates":[[[-75.157578,39.986294],[-75.157519,39.986294],[-75.157519,39.986518],[-75.157578,39.986518],[-75.157578,39.986294]]]}},{"type":"Feature","properties":{"id":"990000030","k":1,"vc":1,"ot":1,"lc":0,"f_vacant":62,"f_shoot":45,"f_poverty":56,"sg":"clean_and_green,plant_shade_trees","rt":5,"rs":4100,"n":1,"ny":2023,"f_canopy":52,"f_heatvul":35,"f_strees":72,"f_people":30},"geometry":{"type":"Polygon","coordinates":[[[-75.155878,39.986177],[-75.155819,39.986177],[-75.155819,39.986401],[-75.155878,39.986401],[-75.155878,39.986177]]]}},{"type":"Feature","properties":{"id":"990000031","k":2,"vc":2,"ot":6,"lc":0,"f_vacant":92,"f_shoot":38,"f_poverty":55,"sg":"seal_abandoned_building","rt":4,"rs":256,"n":1,"f_canopy":92,"f_heatvul":37,"f_strees":78,"f_people":42},"geometry":{"type":"Polygon","coordinates":[[[-75.155819,39.986177],[-75.155761,39.986177],[-75.155761,39.986401],[-75.155819,39.986401],[-75.155819,39.986177]]]}},{"type":"Feature","properties":{"id":"990000032","k":1,"vc":1,"ot":1,"lc":0,"f_vacant":56,"f_shoot":40,"f_poverty":54,"sg":"clean_and_green","rt":5,"rs":4100,"n":1,"ny":2023,"f_canopy":15,"f_heatvul":39,"f_strees":60,"f_people":54},"geometry":{"type":"Polygon","coordinates":[[[-75.155761,39.986177],[-75.155702,39.986177],[-75.155702,39.986401],[-75.155761,39.986401],[-75.155761,39.986177]]]}},{"type":"Feature","properties":{"id":"990000033","k":1,"vc":2,"ot":7,"lc":0,"f_vacant":64,"f_shoot":37,"f_poverty":57,"sg":"clean_and_green","rt":5,"rs":32781,"n":2,"f_canopy":32,"f_heatvul":35,"f_strees":66,"f_people":66},"geometry":{"type":"Polygon","coordinates":[[[-75.155702,39.986177],[-75.155643,39.986177],[-75.155643,39.986401],[-75.155702,39.986401],[-75.155702,39.986177]]]}},{"type":"Feature","properties":{"id":"990000034","k":2,"vc":3,"ot":4,"lc":0,"f_vacant":68,"f_shoot":41,"f_poverty":54,"sg":"seal_abandoned_building","rt":2,"rs":130,"n":1,"sy":2024,"f_canopy":27,"f_heatvul":37,"f_strees":72,"f_people":78},"geometry":{"type":"Polygon","coordinates":[[[-75.155643,39.986177],[-75.155585,39.986177],[-75.155585,39.986401],[-75.155643,39.986401],[-75.155643,39.986177]]]}},{"type":"Feature","properties":{"id":"990000035","k":2,"vc":3,"ot":4,"lc":0,"f_vacant":72,"f_shoot":50,"f_poverty":56,"sg":"seal_abandoned_building","rt":2,"rs":130,"n":1,"sy":2024,"f_heatvul":39,"f_strees":78,"f_people":90},"geometry":{"type":"Polygon","coordinates":[[[-75.155585,39.986177],[-75.155526,39.986177],[-75.155526,39.986401],[-75.155585,39.986401],[-75.155585,39.986177]]]}},{"type":"Feature","properties":{"id":"990000036","k":1,"vc":1,"ot":0,"lc":0,"f_vacant":95,"f_shoot":53,"f_poverty":67,"sg":"clean_and_green,cool_green_lot","rt":5,"rs":4100,"n":1,"ny":2023,"f_canopy":18,"f_heatvul":55,"f_strees":60,"f_people":30,"dw":7},"geometry":{"type":"Polygon","coordinates":[[[-75.153674,39.986347],[-75.153615,39.986347],[-75.153615,39.986572],[-75.153674,39.986572],[-75.153674,39.986347]]]}},{"type":"Feature","properties":{"id":"990000037","k":1,"vc":3,"ot":1,"lc":0,"f_vacant":55,"f_shoot":61,"f_poverty":63,"sg":"clean_and_green,cool_green_lot","rt":5,"rs":13,"n":2,"f_canopy":6,"f_heatvul":57,"f_strees":66,"f_people":42,"dw":7},"geometry":{"type":"Polygon","coordinates":[[[-75.153615,39.986347],[-75.153557,39.986347],[-75.153557,39.986572],[-75.153615,39.986572],[-75.153615,39.986347]]]}},{"type":"Feature","properties":{"id":"990000038","k":1,"vc":3,"ot":3,"lc":1,"f_vacant":37,"f_shoot":51,"f_poverty":65,"sg":"clean_and_green,cool_green_lot","rt":1,"rs":77,"n":3,"f_canopy":13,"f_heatvul":59,"f_strees":72,"f_people":54,"dw":7},"geometry":{"type":"Polygon","coordinates":[[[-75.153557,39.986347],[-75.153498,39.986347],[-75.153498,39.986572],[-75.153557,39.986572],[-75.153557,39.986347]]]}},{"type":"Feature","properties":{"id":"990000039","k":2,"vc":1,"ot":4,"lc":0,"f_vacant":78,"f_shoot":56,"f_poverty":67,"sg":"seal_abandoned_building","rt":2,"rs":1024,"n":1,"f_canopy":72,"f_heatvul":55,"f_strees":78,"f_people":66,"dw":7},"geometry":{"type":"Polygon","coordinates":[[[-75.153498,39.986347],[-75.153439,39.986347],[-75.153439,39.986572],[-75.153498,39.986572],[-75.153498,39.986347]]]}},{"type":"Feature","properties":{"id":"990000040","k":2,"vc":2,"ot":1,"lc":0,"f_vacant":89,"f_shoot":49,"f_poverty":67,"sg":"seal_abandoned_building","rt":5,"rs":65666,"n":1,"sy":2025,"f_canopy":39,"f_heatvul":57,"f_strees":60,"f_people":78,"dw":7},"geometry":{"type":"Polygon","coordinates":[[[-75.153439,39.986347],[-75.153381,39.986347],[-75.153381,39.986572],[-75.153439,39.986572],[-75.153439,39.986347]]]}},{"type":"Feature","properties":{"id":"990000041","k":2,"vc":3,"ot":1,"lc":0,"f_vacant":96,"f_shoot":71,"f_poverty":78,"sg":"seal_abandoned_building","rt":5,"rs":130,"n":1,"sy":2024,"f_canopy":9,"f_heatvul":79,"f_strees":66,"f_people":90,"dw":7},"geometry":{"type":"Polygon","coordinates":[[[-75.151575,39.986321],[-75.151517,39.986321],[-75.151517,39.986545],[-75.151575,39.986545],[-75.151575,39.986321]]]}},{"type":"Feature","properties":{"id":"990000042","k":1,"vc":3,"ot":1,"lc":0,"f_vacant":82,"f_shoot":61,"f_poverty":78,"sg":"clean_and_green,plant_shade_trees,cool_green_lot","rt":5,"rs":13,"n":2,"f_canopy":94,"f_heatvul":75,"f_strees":72,"f_people":30,"dw":7},"geometry":{"type":"Polygon","coordinates":[[[-75.151517,39.986321],[-75.151458,39.986321],[-75.151458,39.986545],[-75.151517,39.986545],[-75.151517,39.986321]]]}},{"type":"Feature","properties":{"id":"990000043","k":1,"vc":3,"ot":1,"lc":1,"f_vacant":32,"f_shoot":76,"f_poverty":76,"sg":"clean_and_green,plant_shade_trees,cool_green_lot","rt":1,"rs":77,"n":3,"f_canopy":87,"f_heatvul":77,"f_strees":78,"f_people":42,"dw":7},"geometry":{"type":"Polygon","coordinates":[[[-75.151458,39.986321],[-75.151399,39.986321],[-75.151399,39.986545],[-75.151458,39.986545],[-75.151458,39.986321]]]}},{"type":"Feature","properties":{"id":"990000044","k":1,"vc":2,"ot":4,"lc":0,"f_vacant":81,"f_shoot":90,"f_poverty":81,"sg":"clean_and_green,plant_shade_trees,cool_green_lot","rt":2,"rs":56,"n":3,"dy":2024,"f_heatvul":99,"f_strees":60,"f_people":54,"dw":28},"geometry":{"type":"Polygon","coordinates":[[[-75.149711,39.986213],[-75.149652,39.986213],[-75.149652,39.986437],[-75.149711,39.986437],[-75.149711,39.986213]]]}},{"type":"Feature","properties":{"id":"990000045","k":2,"vc":3,"ot":1,"lc":0,"f_vacant":86,"f_shoot":87,"f_poverty":82,"sg":"seal_abandoned_building","rt":5,"rs":130,"n":1,"sy":2024,"f_canopy":11,"f_heatvul":95,"f_strees":66,"f_people":66,"dw":28},"geometry":{"type":"Polygon","coordinates":[[[-75.149652,39.986213],[-75.149594,39.986213],[-75.149594,39.986437],[-75.149652,39.986437],[-75.149652,39.986213]]]}},{"type":"Feature","properties":{"id":"990000046","k":1,"vc":3,"ot":1,"lc":0,"f_vacant":69,"f_shoot":78,"f_poverty":82,"sg":"clean_and_green,cool_green_lot","rt":5,"rs":13,"n":2,"f_canopy":19,"f_heatvul":97,"f_strees":72,"f_people":78,"dw":28},"geometry":{"type":"Polygon","coordinates":[[[-75.149594,39.986213],[-75.149535,39.986213],[-75.149535,39.986437],[-75.149594,39.986437],[-75.149594,39.986213]]]}},{"type":"Feature","properties":{"id":"990000047","k":2,"vc":2,"ot":8,"lc":0,"f_vacant":86,"f_shoot":80,"f_poverty":83,"sg":"seal_abandoned_building","rt":4,"rs":256,"n":1,"f_canopy":48,"f_heatvul":99,"f_strees":78,"f_people":90,"dw":28},"geometry":{"type":"Polygon","coordinates":[[[-75.149535,39.986213],[-75.149477,39.986213],[-75.149477,39.986437],[-75.149535,39.986437],[-75.149535,39.986213]]]}},{"type":"Feature","properties":{"id":"990000048","k":2,"vc":2,"ot":2,"lc":0,"f_vacant":72,"f_shoot":93,"f_poverty":81,"sg":"seal_abandoned_building","rt":5,"rs":65666,"n":1,"sy":2025,"f_heatvul":95,"f_strees":60,"f_people":30,"dw":28},"geometry":{"type":"Polygon","coordinates":[[[-75.149477,39.986213],[-75.149418,39.986213],[-75.149418,39.986437],[-75.149477,39.986437],[-75.149477,39.986213]]]}},{"type":"Feature","properties":{"id":"990000049","k":1,"vc":2,"ot":2,"lc":1,"f_vacant":38,"f_shoot":76,"f_poverty":81,"sg":"clean_and_green,plant_shade_trees,cool_green_lot","rt":1,"rs":32845,"n":3,"f_canopy":89,"f_heatvul":97,"f_strees":66,"f_people":42,"dw":28},"geometry":{"type":"Polygon","coordinates":[[[-75.149418,39.986213],[-75.149359,39.986213],[-75.149359,39.986437],[-75.149418,39.986437],[-75.149418,39.986213]]]}},{"type":"Feature","properties":{"id":"990000050","k":1,"vc":3,"ot":1,"lc":1,"f_vacant":20,"f_shoot":78,"f_poverty":84,"sg":"clean_and_green,plant_shade_trees,cool_green_lot","rt":1,"rs":77,"n":3,"f_heatvul":99,"f_strees":72,"f_people":54,"dw":28},"geometry":{"type":"Polygon","coordinates":[[[-75.149359,39.986213],[-75.149301,39.986213],[-75.149301,39.986437],[-75.149359,39.986437],[-75.149359,39.986213]]]}}]}
