{"type":"FeatureCollection","features":[{"type":"Feature","properties":{"id":"990000001","k":2,"vc":3,"ot":1,"lc":0,"f_vacant":88,"f_shoot":23,"f_poverty":92,"sg":"seal_abandoned_building","rt":5,"f_heatvul":17,"f_strees":31,"f_people":42,"lo":1},"geometry":{"type":"Point","coordinates":[-75.157607,39.985265]}},{"type":"Feature","properties":{"id":"990000002","k":1,"vc":3,"ot":3,"lc":1,"f_vacant":36,"f_shoot":27,"f_poverty":93,"sg":"clean_and_green,plant_shade_trees","rt":1,"f_canopy":60,"f_heatvul":19,"f_strees":37,"f_people":54,"lo":1},"geometry":{"type":"Point","coordinates":[-75.157548,39.985265]}},{"type":"Feature","properties":{"id":"990000003","k":2,"vc":3,"ot":1,"lc":0,"f_vacant":88,"f_shoot":24,"f_poverty":95,"sg":"seal_abandoned_building","rt":5,"f_canopy":29,"f_heatvul":15,"f_strees":43,"f_people":66,"lo":1},"geometry":{"type":"Point","coordinates":[-75.15749,39.985265]}},{"type":"Feature","properties":{"id":"990000004","k":2,"vc":2,"ot":2,"lc":0,"f_vacant":55,"f_shoot":31,"f_poverty":77,"sg":"seal_abandoned_building","rt":5,"f_canopy":70,"f_heatvul":37,"f_strees":25,"f_people":78,"lo":1},"geometry":{"type":"Point","coordinates":[-75.155778,39.985131]}},{"type":"Feature","properties":{"id":"990000005","k":1,"vc":3,"ot":1,"lc":0,"f_vacant":82,"f_shoot":40,"f_poverty":76,"sg":"clean_and_green","rt":5,"f_canopy":1,"f_heatvul":39,"f_strees":31,"f_people":90,"lo":1},"geometry":{"type":"Point","coordinates":[-75.155719,39.985131]}},{"type":"Feature","properties":{"id":"990000006","k":1,"vc":3,"ot":1,"lc":0,"f_vacant":74,"f_shoot":36,"f_poverty":77,"sg":"clean_and_green,plant_shade_trees","rt":5,"f_canopy":99,"f_heatvul":35,"f_strees":37,"f_people":30,"lo":1},"geometry":{"type":"Point","coordinates":[-75.155661,39.985131]}},{"type":"Feature","properties":{"id":"990000007","k":1,"vc":2,"ot":1,"lc":0,"f_vacant":75,"f_shoot":31,"f_poverty":76,"sg":"clean_and_green","rt":5,"f_canopy":30,"f_heatvul":37,"f_strees":43,"f_people":42,"lo":1},"geometry":{"type":"Point","coordinates":[-75.155602,39.985131]}},{"type":"Feature","properties":{"id":"990000008","k":2,"vc":3,"ot":2,"lc":0,"f_vacant":56,"f_shoot":41,"f_poverty":75,"sg":"seal_abandoned_building","rt":5,"f_heatvul":39,"f_strees":25,"f_people":54,"lo":1},"geometry":{"type":"Point","coordinates":[-75.155544,39.985131]}},{"type":"Feature","properties":{"id":"990000009","k":1,"vc":2,"ot":4,"lc":0,"f_vacant":56,"f_shoot":49,"f_poverty":74,"sg":"clean_and_green,plant_shade_trees","rt":2,"f_canopy":88,"f_heatvul":35,"f_strees":31,"f_people":66,"lo":1},"geometry":{"type":"Point","coordinates":[-75.155485,39.985131]}},{"type":"Feature","properties":{"id":"990000010","k":1,"vc":3,"ot":1,"lc":0,"f_vacant":66,"f_shoot":58,"f_poverty":92,"sg":"clean_and_green,cool_green_lot","rt":5,"f_heatvul":57,"f_strees":37,"f_people":78,"lo":1},"geometry":{"type":"Point","coordinates":[-75.153692,39.985184]}},{"type":"Feature","properties":{"id":"990000011","k":1,"vc":1,"ot":1,"lc":0,"f_vacant":58,"f_shoot":55,"f_poverty":97,"sg":"clean_and_green,plant_shade_trees,cool_green_lot","rt":5,"f_canopy":69,"f_heatvul":59,"f_strees":43,"f_people":90,"lo":1},"geometry":{"type":"Point","coordinates":[-75.153632,39.985184]}},{"type":"Feature","properties":{"id":"990000012","k":1,"vc":1,"ot":4,"lc":1,"f_vacant":24,"f_shoot":48,"f_poverty":91,"sg":"clean_and_green,cool_green_lot","rt":1,"f_canopy":36,"f_heatvul":55,"f_strees":25,"f_people":30,"lo":1},"geometry":{"type":"Point","coordinates":[-75.153574,39.985184]}},{"type":"Feature","properties":{"id":"990000013","k":1,"vc":3,"ot":0,"lc":0,"f_vacant":79,"f_shoot":63,"f_poverty":95,"sg":"clean_and_green,cool_green_lot","rt":0,"f_canopy":39,"f_heatvul":57,"f_strees":31,"f_people":42,"lo":1},"geometry":{"type":"Point","coordinates":[-75.153515,39.985184]}},{"type":"Feature","properties":{"id":"990000014","k":1,"vc":2,"ot":3,"lc":1,"f_vacant":31,"f_shoot":62,"f_poverty":68,"sg":"clean_and_green,cool_green_lot","rt":1,"f_heatvul":79,"f_strees":37,"f_people":54,"lo":1},"geometry":{"type":"Point","coordinates":[-75.151921,39.985265]}},{"type":"Feature","properties":{"id":"990000015","k":1,"vc":1,"ot":1,"lc":0,"f_vacant":86,"f_shoot":76,"f_poverty":70,"sg":"clean_and_green,cool_green_lot","rt":5,"f_canopy":6,"f_heatvul":75,"f_strees":43,"f_people":66,"lo":1},"geometry":{"type":"Point","coordinates":[-75.151862,39.985265]}},{"type":"Feature","properties":{"id":"990000016","k":1,"vc":1,"ot":3,"lc":0,"f_vacant":90,"f_shoot":67,"f_poverty":71,"sg":"clean_and_green,cool_green_lot","rt":2,"f_canopy":28,"f_heatvul":77,"f_strees":25,"f_people":78,"lo":1},"geometry":{"type":"Point","coordinates":[-75.151804,39.985265]}},{"type":"Feature","properties":{"id":"990000017","k":1,"vc":2,"ot":2,"lc":0,"f_vacant":71,"f_shoot":62,"f_poverty":70,"sg":"clean_and_green,cool_green_lot","rt":5,"f_canopy":8,"f_heatvul":79,"f_strees":31,"f_people":90,"lo":1},"geometry":{"type":"Point","coordinates":[-75.151745,39.985265]}},{"type":"Feature","properties":{"id":"990000018","k":2,"vc":3,"ot":1,"lc":0,"f_vacant":66,"f_shoot":78,"f_poverty":70,"sg":"seal_abandoned_building","rt":5,"f_canopy":64,"f_heatvul":75,"f_strees":37,"f_people":30,"lo":1},"geometry":{"type":"Point","coordinates":[-75.151686,39.985265]}},{"type":"Feature","properties":{"id":"990000019","k":2,"vc":3,"ot":2,"lc":0,"f_vacant":56,"f_shoot":74,"f_poverty":71,"sg":"seal_abandoned_building","rt":5,"f_canopy":24,"f_heatvul":77,"f_strees":43,"f_people":42,"lo":1},"geometry":{"type":"Point","coordinates":[-75.151628,39.985265]}},{"type":"Feature","properties":{"id":"990000020","k":1,"vc":2,"ot":1,"lc":0,"f_vacant":59,"f_shoot":76,"f_poverty":68,"sg":"clean_and_green,cool_green_lot","rt":5,"f_canopy":23,"f_heatvul":79,"f_strees":25,"f_people":54,"lo":1},"geometry":{"type":"Point","coordinates":[-75.151569,39.985265]}},{"type":"Feature","properties":{"id":"990000021","k":1,"vc":2,"ot":2,"lc":0,"f_vacant":91,"f_shoot":80,"f_poverty":71,"sg":"clean_and_green,cool_green_lot","rt":5,"f_canopy":35,"f_heatvul":95,"f_strees":31,"f_people":66,"fp":1,"lo":1},"geometry":{"type":"Point","coordinates":[-75.14974,39.985292]}},{"type":"Feature","properties":{"id":"990000022","k":1,"vc":2,"ot":3,"lc":0,"f_vacant":55,"f_shoot":89,"f_poverty":68,"sg":"clean_and_green,plant_shade_trees,cool_green_lot","rt":2,"f_canopy":92,"f_heatvul":97,"f_strees":37,"f_people":78,"fp":1,"lo":1},"geometry":{"type":"Point","coordinates":[-75.149681,39.985292]}},{"type":"Feature","properties":{"id":"990000023","k":1,"vc":2,"ot":0,"lc":0,"f_vacant":96,"f_shoot":90,"f_poverty":70,"sg":"clean_and_green,cool_green_lot","rt":0,"f_canopy":28,"f_heatvul":99,"f_strees":43,"f_people":90,"fp":1,"lo":1},"geometry":{"type":"Point","coordinates":[-75.149623,39.985292]}},{"type":"Feature","properties":{"id":"990000024","k":2,"vc":3,"ot":2,"lc":0,"f_vacant":61,"f_shoot":76,"f_poverty":69,"sg":"seal_abandoned_building","rt":5,"f_canopy":53,"f_heatvul":95,"f_strees":25,"f_people":30,"fp":1,"lo":1},"geometry":{"type":"Point","coordinates":[-75.149564,39.985292]}},{"type":"Feature","properties":{"id":"990000025","k":1,"vc":3,"ot":1,"lc":0,"f_vacant":59,"f_shoot":90,"f_poverty":69,"sg":"clean_and_green,cool_green_lot","rt":5,"f_canopy":48,"f_heatvul":97,"f_strees":31,"f_people":42,"fp":1,"lo":1},"geometry":{"type":"Point","coordinates":[-75.149506,39.985292]}},{"type":"Feature","properties":{"id":"990000026","k":1,"vc":3,"ot":4,"lc":0,"f_vacant":88,"f_shoot":22,"f_poverty":64,"sg":"clean_and_green,plant_shade_trees","rt":2,"f_canopy":84,"f_heatvul":19,"f_strees":72,"f_people":54,"lo":1},"geometry":{"type":"Point","coordinates":[-75.157724,39.986406]}},{"type":"Feature","properties":{"id":"990000027","k":2,"vc":2,"ot":4,"lc":0,"f_vacant":96,"f_shoot":17,"f_poverty":60,"sg":"seal_abandoned_building","rt":2,"f_canopy":90,"f_heatvul":15,"f_strees":78,"f_people":66,"lo":1},"geometry":{"type":"Point","coordinates":[-75.157666,39.986406]}},{"type":"Feature","properties":{"id":"990000028","k":1,"vc":3,"ot":2,"lc":0,"f_vacant":83,"f_shoot":16,"f_poverty":61,"sg":"clean_and_green","rt":5,"f_canopy":17,"f_heatvul":17,"f_strees":60,"f_people":78,"lo":1},"geometry":{"type":"Point","coordinates":[-75.157607,39.986406]}},{"type":"Feature","properties":{"id":"990000029","k":2,"vc":2,"ot":5,"lc":0,"f_vacant":85,"f_shoot":34,"f_poverty":59,"sg":"seal_abandoned_building","rt":3,"f_heatvul":19,"f_strees":66,"f_people":90,"lo":1},"geometry":{"type":"Point","coordinates":[-75.157548,39.986406]}},{"type":"Feature","properties":{"id":"990000030","k":1,"vc":1,"ot":1,"lc":0,"f_vacant":62,"f_shoot":45,"f_poverty":56,"sg":"clean_and_green,plant_shade_trees","rt":5,"f_canopy":52,"f_heatvul":35,"f_strees":72,"f_people":30,"lo":1},"geometry":{"type":"Point","coordinates":[-75.155848,39.986289]}},{"type":"Feature","properties":{"id":"990000031","k":2,"vc":2,"ot":6,"lc":0,"f_vacant":92,"f_shoot":38,"f_poverty":55,"sg":"seal_abandoned_building","rt":4,"f_canopy":92,"f_heatvul":37,"f_strees":78,"f_people":42,"lo":1},"geometry":{"type":"Point","coordinates":[-75.15579,39.986289]}},{"type":"Feature","properties":{"id":"990000032","k":1,"vc":1,"ot":1,"lc":0,"f_vacant":56,"f_shoot":40,"f_poverty":54,"sg":"clean_and_green","rt":5,"f_canopy":15,"f_heatvul":39,"f_strees":60,"f_people":54,"lo":1},"geometry":{"type":"Point","coordinates":[-75.155731,39.986289]}},{"type":"Feature","properties":{"id":"990000033","k":1,"vc":2,"ot":7,"lc":0,"f_vacant":64,"f_shoot":37,"f_poverty":57,"sg":"clean_and_green","rt":5,"f_canopy":32,"f_heatvul":35,"f_strees":66,"f_people":66,"lo":1},"geometry":{"type":"Point","coordinates":[-75.155673,39.986289]}},{"type":"Feature","properties":{"id":"990000034","k":2,"vc":3,"ot":4,"lc":0,"f_vacant":68,"f_shoot":41,"f_poverty":54,"sg":"seal_abandoned_building","rt":2,"f_canopy":27,"f_heatvul":37,"f_strees":72,"f_people":78,"lo":1},"geometry":{"type":"Point","coordinates":[-75.155614,39.986289]}},{"type":"Feature","properties":{"id":"990000035","k":2,"vc":3,"ot":4,"lc":0,"f_vacant":72,"f_shoot":50,"f_poverty":56,"sg":"seal_abandoned_building","rt":2,"f_heatvul":39,"f_strees":78,"f_people":90,"lo":1},"geometry":{"type":"Point","coordinates":[-75.155555,39.986289]}},{"type":"Feature","properties":{"id":"990000036","k":1,"vc":1,"ot":0,"lc":0,"f_vacant":95,"f_shoot":53,"f_poverty":67,"sg":"clean_and_green,cool_green_lot","rt":5,"f_canopy":18,"f_heatvul":55,"f_strees":60,"f_people":30,"lo":1},"geometry":{"type":"Point","coordinates":[-75.153644,39.98646]}},{"type":"Feature","properties":{"id":"990000037","k":1,"vc":3,"ot":1,"lc":0,"f_vacant":55,"f_shoot":61,"f_poverty":63,"sg":"clean_and_green,cool_green_lot","rt":5,"f_canopy":6,"f_heatvul":57,"f_strees":66,"f_people":42,"lo":1},"geometry":{"type":"Point","coordinates":[-75.153586,39.98646]}},{"type":"Feature","properties":{"id":"990000038","k":1,"vc":3,"ot":3,"lc":1,"f_vacant":37,"f_shoot":51,"f_poverty":65,"sg":"clean_and_green,cool_green_lot","rt":1,"f_canopy":13,"f_heatvul":59,"f_strees":72,"f_people":54,"lo":1},"geometry":{"type":"Point","coordinates":[-75.153527,39.98646]}},{"type":"Feature","properties":{"id":"990000039","k":2,"vc":1,"ot":4,"lc":0,"f_vacant":78,"f_shoot":56,"f_poverty":67,"sg":"seal_abandoned_building","rt":2,"f_canopy":72,"f_heatvul":55,"f_strees":78,"f_people":66,"lo":1},"geometry":{"type":"Point","coordinates":[-75.153468,39.98646]}},{"type":"Feature","properties":{"id":"990000040","k":2,"vc":2,"ot":1,"lc":0,"f_vacant":89,"f_shoot":49,"f_poverty":67,"sg":"seal_abandoned_building","rt":5,"f_canopy":39,"f_heatvul":57,"f_strees":60,"f_people":78,"lo":1},"geometry":{"type":"Point","coordinates":[-75.15341,39.98646]}},{"type":"Feature","properties":{"id":"990000041","k":2,"vc":3,"ot":1,"lc":0,"f_vacant":96,"f_shoot":71,"f_poverty":78,"sg":"seal_abandoned_building","rt":5,"f_canopy":9,"f_heatvul":79,"f_strees":66,"f_people":90,"lo":1},"geometry":{"type":"Point","coordinates":[-75.151546,39.986433]}},{"type":"Feature","properties":{"id":"990000042","k":1,"vc":3,"ot":1,"lc":0,"f_vacant":82,"f_shoot":61,"f_poverty":78,"sg":"clean_and_green,plant_shade_trees,cool_green_lot","rt":5,"f_canopy":94,"f_heatvul":75,"f_strees":72,"f_people":30,"lo":1},"geometry":{"type":"Point","coordinates":[-75.151487,39.986433]}},{"type":"Feature","properties":{"id":"990000043","k":1,"vc":3,"ot":1,"lc":1,"f_vacant":32,"f_shoot":76,"f_poverty":76,"sg":"clean_and_green,plant_shade_trees,cool_green_lot","rt":1,"f_canopy":87,"f_heatvul":77,"f_strees":78,"f_people":42,"lo":1},"geometry":{"type":"Point","coordinates":[-75.151429,39.986433]}},{"type":"Feature","properties":{"id":"990000044","k":1,"vc":2,"ot":4,"lc":0,"f_vacant":81,"f_shoot":90,"f_poverty":81,"sg":"clean_and_green,plant_shade_trees,cool_green_lot","rt":2,"f_heatvul":99,"f_strees":60,"f_people":54,"lo":1},"geometry":{"type":"Point","coordinates":[-75.149681,39.986325]}},{"type":"Feature","properties":{"id":"990000045","k":2,"vc":3,"ot":1,"lc":0,"f_vacant":86,"f_shoot":87,"f_poverty":82,"sg":"seal_abandoned_building","rt":5,"f_canopy":11,"f_heatvul":95,"f_strees":66,"f_people":66,"lo":1},"geometry":{"type":"Point","coordinates":[-75.149623,39.986325]}},{"type":"Feature","properties":{"id":"990000046","k":1,"vc":3,"ot":1,"lc":0,"f_vacant":69,"f_shoot":78,"f_poverty":82,"sg":"clean_and_green,cool_green_lot","rt":5,"f_canopy":19,"f_heatvul":97,"f_strees":72,"f_people":78,"lo":1},"geometry":{"type":"Point","coordinates":[-75.149564,39.986325]}},{"type":"Feature","properties":{"id":"990000047","k":2,"vc":2,"ot":8,"lc":0,"f_vacant":86,"f_shoot":80,"f_poverty":83,"sg":"seal_abandoned_building","rt":4,"f_canopy":48,"f_heatvul":99,"f_strees":78,"f_people":90,"lo":1},"geometry":{"type":"Point","coordinates":[-75.149506,39.986325]}},{"type":"Feature","properties":{"id":"990000048","k":2,"vc":2,"ot":2,"lc":0,"f_vacant":72,"f_shoot":93,"f_poverty":81,"sg":"seal_abandoned_building","rt":5,"f_heatvul":95,"f_strees":60,"f_people":30,"lo":1},"geometry":{"type":"Point","coordinates":[-75.149448,39.986325]}},{"type":"Feature","properties":{"id":"990000049","k":1,"vc":2,"ot":2,"lc":1,"f_vacant":38,"f_shoot":76,"f_poverty":81,"sg":"clean_and_green,plant_shade_trees,cool_green_lot","rt":1,"f_canopy":89,"f_heatvul":97,"f_strees":66,"f_people":42,"lo":1},"geometry":{"type":"Point","coordinates":[-75.149388,39.986325]}},{"type":"Feature","properties":{"id":"990000050","k":1,"vc":3,"ot":1,"lc":1,"f_vacant":20,"f_shoot":78,"f_poverty":84,"sg":"clean_and_green,plant_shade_trees,cool_green_lot","rt":1,"f_heatvul":99,"f_strees":72,"f_people":54,"lo":1},"geometry":{"type":"Point","coordinates":[-75.14933,39.986325]}}]}
