{"type":"FeatureCollection","features":[{"type":"Feature","properties":{"id":"n9000001","c":3,"md":1,"sh":1,"bn":1,"bi":1,"lt":1,"tp":0,"nm":"Broad St & Sample 1 St","ref":"90001"},"geometry":{"type":"Point","coordinates":[-75.15603,39.98482]}},{"type":"Feature","properties":{"id":"n9000002","c":3,"md":1,"sh":1,"nb":1,"nm":"Broad St & Sample 6 St"},"geometry":{"type":"Point","coordinates":[-75.156218,39.985898]}},{"type":"Feature","properties":{"id":"n9000003","c":3,"md":3,"cv":1,"nm":"Sample transit center"},"geometry":{"type":"Point","coordinates":[-75.156124,39.986689]}},{"type":"Feature","properties":{"id":"n9000004","c":2,"md":1,"sh":0,"bn":1,"ref":"90004"},"geometry":{"type":"Point","coordinates":[-75.154248,39.985467]}},{"type":"Feature","properties":{"id":"n9000005","c":1,"md":1,"sh":0,"bn":0,"bi":0,"lt":1,"tp":0,"nm":"Sample 9 St & Sample 20 Ave"},"geometry":{"type":"Point","coordinates":[-75.152372,39.985467]}},{"type":"Feature","properties":{"id":"n9000006","c":0,"md":2,"nm":"Sample 3 St & Sample 24 Ave"},"geometry":{"type":"Point","coordinates":[-75.150497,39.984533]}},{"type":"Feature","properties":{"id":"w9000007","c":0,"md":2,"sh":0},"geometry":{"type":"Point","coordinates":[-75.148621,39.986545]}}]}
