{"type":"FeatureCollection","features":[{"type":"Feature","properties":{"id":"pa9001","k":2,"src":7,"ty":6,"nm":"Sample Figure","ar":"Avery Example","y":1976,"md":"Bronze","pa":9001,"doc":"https://example.org/percent-for-art/9001.pdf","osm":"n9200001","wd":"Q9200001","wp":"https://en.wikipedia.org/wiki/Sample_Figure","w":"https://www.associationforpublicart.org/artwork/sample-figure/"},"geometry":{"type":"Point","coordinates":[-75.15671,39.985898]}},{"type":"Feature","properties":{"id":"n9200002","k":1,"src":2,"ty":1,"nm":"Sample Street Mural","ar":"Jordan Painter","y":2019,"osm":"n9200002"},"geometry":{"type":"Point","coordinates":[-75.154835,39.985898]}},{"type":"Feature","properties":{"id":"n9200003","k":1,"src":2,"ty":1,"osm":"n9200003"},"geometry":{"type":"Point","coordinates":[-75.152959,39.985898]}},{"type":"Feature","properties":{"id":"Q9200004","k":3,"src":4,"ty":4,"nm":"Sample Mosaic Wall","y":2005,"wd":"Q9200004"},"geometry":{"type":"Point","coordinates":[-75.150966,39.985898]}},{"type":"Feature","properties":{"id":"pa9005","k":0,"src":1,"ty":9,"nm":"Sample Light Work","ar":"Casey Maker","y":2015,"lc":"Sample Library (interior)","in":1,"pa":9005},"geometry":{"type":"Point","coordinates":[-75.149559,39.985898]}},{"type":"Feature","properties":{"id":"Q9200006","k":2,"src":6,"mem":1,"osm":"n9200006","wd":"Q9200006"},"geometry":{"type":"Point","coordinates":[-75.154835,39.98482]}}]}
