{"type":"FeatureCollection","features":[{"type":"Feature","properties":{"id":9001,"nm":"Sample Civic Association","t":"Other","w":"https://example.org/civic"},"geometry":{"type":"Polygon","coordinates":[[[-75.159172,39.984461],[-75.150966,39.984461],[-75.150966,39.987964],[-75.159172,39.987964],[-75.159172,39.984461]]]}},{"type":"Feature","properties":{"id":9002,"nm":"Sample Ward Committee","t":"Ward"},"geometry":{"type":"Polygon","coordinates":[[[-75.154483,39.984641],[-75.146862,39.984641],[-75.146862,39.988234],[-75.154483,39.988234],[-75.154483,39.984641]]]}}]}
