{"type":"FeatureCollection","features":[{"type":"Feature","properties":{"id":"SAMPLE_WEST","nm":"Sample West"},"geometry":{"type":"Polygon","coordinates":[[[-75.160345,39.983653],[-75.153545,39.983653],[-75.153545,39.988773],[-75.160345,39.988773],[-75.160345,39.983653]]]}},{"type":"Feature","properties":{"id":"SAMPLE_EAST","nm":"Sample East"},"geometry":{"type":"Polygon","coordinates":[[[-75.153545,39.983653],[-75.14569,39.983653],[-75.14569,39.988773],[-75.153545,39.988773],[-75.153545,39.983653]]]}}]}
