{"type":"FeatureCollection","features":[{"type":"Feature","properties":{"id":9001,"name":"SAMPLE 3 ST","n":3,"o":1,"d":"2026-10-01"},"geometry":{"type":"Point","coordinates":[-75.15331,39.984461]}},{"type":"Feature","properties":{"id":9002,"name":"SAMPLE 12 ST","n":1,"o":0,"d":"2026-08-15"},"geometry":{"type":"Point","coordinates":[-75.155186,39.986617]}},{"type":"Feature","properties":{"id":9003,"name":"SAMPLE 10 ST","n":5,"o":2,"d":"2026-09-28"},"geometry":{"type":"Point","coordinates":[-75.149559,39.985539]}}]}
