{"type":"FeatureCollection","features":[{"type":"Feature","properties":{"id":9101,"l":3,"l2":2,"bf":3,"sp":30,"ln":2},"geometry":{"type":"LineString","coordinates":[[-75.158,39.984461],[-75.148621,39.984461]]}},{"type":"Feature","properties":{"id":9102,"l":1,"sp":25,"ln":2},"geometry":{"type":"LineString","coordinates":[[-75.158,39.985539],[-75.148621,39.985539]]}},{"type":"Feature","properties":{"id":9103,"l":2,"sp":25,"ln":2},"geometry":{"type":"LineString","coordinates":[[-75.158,39.986617],[-75.148621,39.986617]]}},{"type":"Feature","properties":{"id":9104,"l":4,"sp":35,"ln":4},"geometry":{"type":"LineString","coordinates":[[-75.156124,39.984461],[-75.156124,39.986617]]}},{"type":"Feature","properties":{"id":9105,"l":1,"bf":6,"ln":2},"geometry":{"type":"LineString","coordinates":[[-75.150497,39.984461],[-75.150497,39.986617]]}}]}
