{"type":"FeatureCollection","features":[{"type":"Feature","properties":{"id":"42101900200","w":7,"nm":"Sample Heights","n0":212,"n1":158,"p0":61000,"p1":112000,"pc":84,"cb":46,"ah":1450,"ac":131,"oc":1830,"rp":52,"mb":3,"mr":0},"geometry":{"type":"Polygon","coordinates":[[[-75.154483,39.983653],[-75.150379,39.983653],[-75.150379,39.988773],[-75.154483,39.988773],[-75.154483,39.983653]]]}},{"type":"Feature","properties":{"id":"42101900300","w":28,"nm":"Sample Park","n0":31,"n1":24,"ah":640,"ac":112,"oc":950,"rp":71,"mb":2,"mr":1},"geometry":{"type":"Polygon","coordinates":[[[-75.150379,39.983653],[-75.14569,39.983653],[-75.14569,39.988773],[-75.150379,39.988773],[-75.150379,39.983653]]]}}]}
