{"type":"FeatureCollection","features":[{"type":"Feature","properties":{"z":1},"geometry":{"type":"Polygon","coordinates":[[[-75.150497,39.984281],[-75.148386,39.984281],[-75.148386,39.985539],[-75.150497,39.985539],[-75.150497,39.984281]]]}},{"type":"Feature","properties":{"z":1,"fw":1},"geometry":{"type":"Polygon","coordinates":[[[-75.148386,39.984281],[-75.148035,39.984281],[-75.148035,39.985539],[-75.148386,39.985539],[-75.148386,39.984281]]]}},{"type":"Feature","properties":{"z":2},"geometry":{"type":"Polygon","coordinates":[[[-75.150497,39.985539],[-75.148035,39.985539],[-75.148035,39.986258],[-75.150497,39.986258],[-75.150497,39.985539]]]}}]}
