{"type":"FeatureCollection","features":[{"type":"Feature","properties":{"id":"42101900100","hv":2,"he":1,"hs":3},"geometry":{"type":"Polygon","coordinates":[[[-75.160345,39.983653],[-75.154483,39.983653],[-75.154483,39.988773],[-75.160345,39.988773],[-75.160345,39.983653]]]}},{"type":"Feature","properties":{"id":"42101900200","hv":4,"he":4,"hs":3},"geometry":{"type":"Polygon","coordinates":[[[-75.154483,39.983653],[-75.150379,39.983653],[-75.150379,39.988773],[-75.154483,39.988773],[-75.154483,39.983653]]]}},{"type":"Feature","properties":{"id":"42101900300","hv":5,"he":5,"hs":5,"vh":1},"geometry":{"type":"Polygon","coordinates":[[[-75.150379,39.983653],[-75.14569,39.983653],[-75.14569,39.988773],[-75.150379,39.988773],[-75.150379,39.983653]]]}},{"type":"Feature","properties":{"id":"42101900400"},"geometry":{"type":"Polygon","coordinates":[[[-75.160345,39.988773],[-75.14569,39.988773],[-75.14569,39.99039],[-75.160345,39.99039],[-75.160345,39.988773]]]}}]}
