{"type":"FeatureCollection","features":[{"type":"Feature","properties":{"n":142,"sw":61,"bl":38,"cw":22,"co":14,"rp":7},"geometry":{"type":"Point","coordinates":[-75.154489,39.985942]}},{"type":"Feature","properties":{"id":"8a2a1348d017fff","n":142,"sw":61,"bl":38,"cw":22,"co":14,"rp":7},"geometry":{"type":"Polygon","coordinates":[[[-75.154228,39.9865757],[-75.1551216,39.9864173],[-75.1553824,39.9857834],[-75.1547497,39.9853079],[-75.1538562,39.9854663],[-75.1535953,39.9861002],[-75.154228,39.9865757]]]}},{"type":"Feature","properties":{"n":48,"sw":20,"bl":19,"cw":6},"geometry":{"type":"Point","coordinates":[-75.152963,39.985625]}},{"type":"Feature","properties":{"id":"8a2a1348d007fff","n":48,"sw":20,"bl":19,"cw":6},"geometry":{"type":"Polygon","coordinates":[[[-75.1527018,39.9862586],[-75.1535953,39.9861002],[-75.1538562,39.9854663],[-75.1532235,39.9849908],[-75.1523299,39.9851491],[-75.1520691,39.985783],[-75.1527018,39.9862586]]]}},{"type":"Feature","properties":{"n":31,"bl":27},"geometry":{"type":"Point","coordinates":[-75.154117,39.984832]}},{"type":"Feature","properties":{"id":"8a2a1348d01ffff","n":31,"bl":27},"geometry":{"type":"Polygon","coordinates":[[[-75.1538562,39.9854663],[-75.1547497,39.9853079],[-75.1550105,39.984674],[-75.1543778,39.9841985],[-75.1534843,39.9843569],[-75.1532235,39.9849908],[-75.1538562,39.9854663]]]}},{"type":"Feature","properties":{"n":17,"sw":9,"co":6},"geometry":{"type":"Point","coordinates":[-75.153334,39.986734]}},{"type":"Feature","properties":{"id":"8a2a1348d037fff","n":17,"sw":9,"co":6},"geometry":{"type":"Polygon","coordinates":[[[-75.1530736,39.987368],[-75.1539672,39.9872096],[-75.154228,39.9865757],[-75.1535953,39.9861002],[-75.1527018,39.9862586],[-75.1524409,39.9868925],[-75.1530736,39.987368]]]}},{"type":"Feature","properties":{"n":9,"cw":5},"geometry":{"type":"Point","coordinates":[-75.156015,39.986259]}},{"type":"Feature","properties":{"id":"8a2a1348d0a7fff","n":9,"cw":5},"geometry":{"type":"Polygon","coordinates":[[[-75.1557544,39.9868928],[-75.1566479,39.9867344],[-75.1569087,39.9861005],[-75.156276,39.985625],[-75.1553824,39.9857834],[-75.1551216,39.9864173],[-75.1557544,39.9868928]]]}},{"type":"Feature","properties":{"n":7},"geometry":{"type":"Point","coordinates":[-75.155643,39.98515]}},{"type":"Feature","properties":{"id":"8a2a1348d0affff","n":7},"geometry":{"type":"Polygon","coordinates":[[[-75.1553824,39.9857834],[-75.156276,39.985625],[-75.1565368,39.9849911],[-75.155904,39.9845156],[-75.1550105,39.984674],[-75.1547497,39.9853079],[-75.1553824,39.9857834]]]}},{"type":"Feature","properties":{"n":5,"rp":5},"geometry":{"type":"Point","coordinates":[-75.154861,39.987051]}},{"type":"Feature","properties":{"id":"8a2a1348d18ffff","n":5,"rp":5},"geometry":{"type":"Polygon","coordinates":[[[-75.1545999,39.9876852],[-75.1554935,39.9875268],[-75.1557544,39.9868928],[-75.1551216,39.9864173],[-75.154228,39.9865757],[-75.1539672,39.9872096],[-75.1545999,39.9876852]]]}}]}
