{"type":"FeatureCollection","features":[{"type":"Feature","properties":{"id":"cool1","nm":"Sample","k":1,"ad":"1 Sample St.","hr":"9a-7p","c":1,"w":1,"st":1,"sv":"Book Drop Browse Shelves Computer Use Wi-fi","ada":1,"ws":1,"pl":"lib1","pn":"Sample Library"},"geometry":{"type":"Point","coordinates":[-75.154483,39.986842]}},{"type":"Feature","properties":{"id":"cool2","nm":"Sample Community Partner","k":3,"ad":"9 Example Ave.","hr":"11a-7p","c":1,"w":0,"st":0,"cap":20},"geometry":{"type":"Point","coordinates":[-75.147917,39.986904]}}]}
