{"type":"FeatureCollection","features":[{"type":"Feature","properties":{"id":"pool1","nm":"Sample Pool","k":1,"st":1,"in":0,"ada":1,"ad":"2 SAMPLE ST","op":"2026-06-24"},"geometry":{"type":"Point","coordinates":[-75.153545,39.986904]}},{"type":"Feature","properties":{"id":"spray1","nm":"Sample Playground","k":2,"st":1},"geometry":{"type":"Point","coordinates":[-75.151669,39.986904]}},{"type":"Feature","properties":{"id":"spray2","nm":"Sample Square","k":3,"st":0},"geometry":{"type":"Point","coordinates":[-75.149793,39.986904]}}]}
