{"type":"FeatureCollection","features":[{"type":"Feature","properties":{"k":1,"id":7001,"o":1},"geometry":{"type":"Point","coordinates":[-75.156828,39.985593]}},{"type":"Feature","properties":{"k":1,"id":7002,"o":1},"geometry":{"type":"Point","coordinates":[-75.155655,39.985593]}},{"type":"Feature","properties":{"k":2,"id":7003,"o":1},"geometry":{"type":"Point","coordinates":[-75.155069,39.985485]}},{"type":"Feature","properties":{"k":3,"id":7004,"o":1},"geometry":{"type":"Point","coordinates":[-75.154483,39.985593]}},{"type":"Feature","properties":{"k":0,"id":7005,"o":2},"geometry":{"type":"Point","coordinates":[-75.153897,39.985485]}},{"type":"Feature","properties":{"k":1,"id":7006,"o":1},"geometry":{"type":"Point","coordinates":[-75.153076,39.985593]}},{"type":"Feature","properties":{"k":0,"id":7007,"o":1},"geometry":{"type":"Point","coordinates":[-75.156054,39.986078]}},{"type":"Feature","properties":{"k":1,"o":3},"geometry":{"type":"Point","coordinates":[-75.156054,39.98518]}}]}
