{"type":"FeatureCollection","features":[{"type":"Feature","properties":{"l":"A1","g":"A"},"geometry":{"type":"Polygon","coordinates":[[[-75.162,39.987],[-75.155,39.987],[-75.155,39.992],[-75.162,39.992],[-75.162,39.987]]]}},{"type":"Feature","properties":{"l":"B1","g":"B"},"geometry":{"type":"Polygon","coordinates":[[[-75.155,39.987],[-75.148,39.987],[-75.148,39.992],[-75.155,39.992],[-75.155,39.987]]]}},{"type":"Feature","properties":{"l":"C1","g":"C"},"geometry":{"type":"Polygon","coordinates":[[[-75.162,39.981],[-75.155,39.981],[-75.155,39.987],[-75.162,39.987],[-75.162,39.981]]]}},{"type":"Feature","properties":{"l":"D1","g":"D"},"geometry":{"type":"Polygon","coordinates":[[[-75.155,39.981],[-75.148,39.981],[-75.148,39.987],[-75.155,39.987],[-75.155,39.981]]]}},{"type":"Feature","properties":{"l":"Industrial and Commercial"},"geometry":{"type":"Polygon","coordinates":[[[-75.148,39.981],[-75.144,39.981],[-75.144,39.992],[-75.148,39.992],[-75.148,39.981]]]}}]}
