{"type":"FeatureCollection","features":[{"type":"Feature","properties":{"id":"o878f2af2","nm":"/NIS Narcotics Injection Sites Overlay District","sy":"/NIS","t":1,"cs":"14-540","cl":"https://codelibrary.amlegal.com/codes/philadelphia/latest/philadelphia_pa/0-0-0-305352"},"geometry":{"type":"Polygon","coordinates":[[[-75.159759,39.983653],[-75.14569,39.983653],[-75.14569,39.989042],[-75.159759,39.989042],[-75.159759,39.983653]]]}},{"type":"Feature","properties":{"id":"oe0618f38","nm":"/NCO Neighborhood Conservation Overlay District - Sample Area","sy":"/NCO","t":1,"cs":"14-504(5)","cl":"https://codelibrary.amlegal.com/codes/philadelphia/latest/philadelphia_pa/0-0-0-290619"},"geometry":{"type":"Polygon","coordinates":[[[-75.158234,39.984731],[-75.153076,39.984731],[-75.153076,39.986797],[-75.158234,39.986797],[-75.158234,39.984731]]]}},{"type":"Feature","properties":{"id":"of938179f","nm":"Open Space and Natural Resources - Flood Protection - Within the Special Flood Hazard Area","t":2,"cs":"14-704(4)(c)(.2)","cl":"https://codelibrary.amlegal.com/codes/philadelphia/latest/philadelphia_pa/0-0-0-293399"},"geometry":{"type":"Polygon","coordinates":[[[-75.150262,39.984731],[-75.147448,39.984731],[-75.147448,39.985539],[-75.150262,39.985539],[-75.150262,39.984731]]]}}]}
