{"type":"FeatureCollection","features":[{"type":"Feature","properties":{"id":"fc20260820_1000","d":"2026-08-20","m":1,"pl":"Sample St and Test Ave 1","sg":"memorial_or_ghost_bike,traffic_calming_petition","tc":0},"geometry":{"type":"Point","coordinates":[-75.157062,39.984497]}},{"type":"Feature","properties":{"id":"fc20251111_1001","d":"2025-11-11","m":2,"pl":"Sample St and Test Ave 2","sg":"memorial_or_ghost_bike,daylighting_check,asphalt_art_check"},"geometry":{"type":"Point","coordinates":[-75.15331,39.985575]}},{"type":"Feature","properties":{"id":"fc20240302_1002","d":"2024-03-02","m":8,"pl":"Sample St and Test Ave 3","sg":"memorial_or_ghost_bike,traffic_calming_petition,daylighting_check,asphalt_art_check","tc":1,"ty":2024},"geometry":{"type":"Point","coordinates":[-75.149559,39.986653]}},{"type":"Feature","properties":{"id":"fc20230505_1003","d":"2023-05-05","m":1,"pl":"Sample St and Test Ave 4","sg":"memorial_or_ghost_bike"},"geometry":{"type":"Point","coordinates":[-75.152372,39.985036]}},{"type":"Feature","properties":{"id":"fc20220714_1004","d":"2022-07-14","m":4,"pl":"Sample St and Test Ave 5","sg":"memorial_or_ghost_bike"},"geometry":{"type":"Point","coordinates":[-75.155186,39.984497]}},{"type":"Feature","properties":{"id":"fc20210130_1005","d":"2021-01-30","m":0,"pl":"Sample St and Test Ave 6","sg":"memorial_or_ghost_bike,daylighting_check,asphalt_art_check"},"geometry":{"type":"Point","coordinates":[-75.151435,39.985575]}}]}
