{"type":"FeatureCollection","features":[{"type":"Feature","properties":{"id":900001,"name":"SAMPLE 1 ST","cls":5,"hin":0,"f_hin":0,"ksi":0,"f_ksi_vru":0,"k2":0,"f_fatal2":0,"sch":1,"f_school":100},"geometry":{"type":"LineString","coordinates":[[-75.158,39.984461],[-75.156124,39.984461]]}},{"type":"Feature","properties":{"id":900002,"name":"SAMPLE 2 ST","cls":5,"hin":0,"f_hin":0,"ksi":1,"f_ksi_vru":70,"k2":0,"f_fatal2":0,"sch":1,"f_school":100},"geometry":{"type":"LineString","coordinates":[[-75.156124,39.984461],[-75.154248,39.984461]]}},{"type":"Feature","properties":{"id":900003,"name":"SAMPLE 3 ST","cls":5,"hin":0,"f_hin":0,"ksi":0,"f_ksi_vru":0,"k2":1,"f_fatal2":100,"sch":1,"f_school":100},"geometry":{"type":"LineString","coordinates":[[-75.154248,39.984461],[-75.152372,39.984461]]}},{"type":"Feature","properties":{"id":900004,"name":"SAMPLE 4 ST","cls":5,"hin":0,"f_hin":0,"ksi":2,"f_ksi_vru":85,"k2":1,"f_fatal2":100,"sch":1,"f_school":100},"geometry":{"type":"LineString","coordinates":[[-75.152372,39.984461],[-75.150497,39.984461]]}},{"type":"Feature","properties":{"id":900005,"name":"SAMPLE 5 ST","cls":5,"hin":0,"f_hin":0,"ksi":4,"f_ksi_vru":93,"k2":0,"f_fatal2":0,"sch":1,"f_school":100},"geometry":{"type":"LineString","coordinates":[[-75.150497,39.984461],[-75.148621,39.984461]]}},{"type":"Feature","properties":{"id":900006,"name":"SAMPLE 6 ST","cls":5,"hin":0,"f_hin":0,"ksi":0,"f_ksi_vru":0,"k2":1,"f_fatal2":100,"sch":0,"f_school":0},"geometry":{"type":"LineString","coordinates":[[-75.158,39.985539],[-75.156124,39.985539]]}},{"type":"Feature","properties":{"id":900007,"name":"SAMPLE 7 ST","cls":5,"hin":0,"f_hin":0,"ksi":2,"f_ksi_vru":85,"k2":0,"f_fatal2":0,"sch":1,"f_school":100},"geometry":{"type":"LineString","coordinates":[[-75.156124,39.985539],[-75.154248,39.985539]]}},{"type":"Feature","properties":{"id":900008,"name":"SAMPLE 8 ST","cls":5,"hin":0,"f_hin":0,"ksi":1,"f_ksi_vru":70,"k2":0,"f_fatal2":0,"sch":1,"f_school":100},"geometry":{"type":"LineString","coordinates":[[-75.154248,39.985539],[-75.152372,39.985539]]}},{"type":"Feature","properties":{"id":900009,"name":"SAMPLE 9 ST","cls":5,"hin":0,"f_hin":0,"ksi":0,"f_ksi_vru":0,"k2":0,"f_fatal2":0,"sch":1,"f_school":100},"geometry":{"type":"LineString","coordinates":[[-75.152372,39.985539],[-75.150497,39.985539]]}},{"type":"Feature","properties":{"id":900010,"name":"SAMPLE 10 ST","cls":5,"hin":0,"f_hin":0,"ksi":0,"f_ksi_vru":0,"k2":0,"f_fatal2":0,"sch":0,"f_school":0},"geometry":{"type":"LineString","coordinates":[[-75.150497,39.985539],[-75.148621,39.985539]]}},{"type":"Feature","properties":{"id":900011,"name":"SAMPLE 11 ST","cls":5,"hin":0,"f_hin":0,"ksi":0,"f_ksi_vru":0,"k2":0,"f_fatal2":0,"sch":1,"f_school":100},"geometry":{"type":"LineString","coordinates":[[-75.158,39.986617],[-75.156124,39.986617]]}},{"type":"Feature","properties":{"id":900012,"name":"SAMPLE 12 ST","cls":5,"hin":0,"f_hin":0,"ksi":0,"f_ksi_vru":0,"k2":0,"f_fatal2":0,"sch":0,"f_school":0},"geometry":{"type":"LineString","coordinates":[[-75.156124,39.986617],[-75.154248,39.986617]]}},{"type":"Feature","properties":{"id":900013,"name":"SAMPLE 13 ST","cls":5,"hin":0,"f_hin":0,"ksi":0,"f_ksi_vru":0,"k2":0,"f_fatal2":0,"sch":0,"f_school":0},"geometry":{"type":"LineString","coordinates":[[-75.154248,39.986617],[-75.152372,39.986617]]}},{"type":"Feature","properties":{"id":900014,"name":"SAMPLE 14 ST","cls":5,"hin":0,"f_hin":0,"ksi":0,"f_ksi_vru":0,"k2":1,"f_fatal2":100,"sch":1,"f_school":100},"geometry":{"type":"LineString","coordinates":[[-75.152372,39.986617],[-75.150497,39.986617]]}},{"type":"Feature","properties":{"id":900015,"name":"SAMPLE 15 ST","cls":5,"hin":0,"f_hin":0,"ksi":0,"f_ksi_vru":0,"k2":0,"f_fatal2":0,"sch":1,"f_school":100},"geometry":{"type":"LineString","coordinates":[[-75.150497,39.986617],[-75.148621,39.986617]]}},{"type":"Feature","properties":{"id":900016,"name":"SAMPLE 16 AVE","cls":4,"hin":0,"f_hin":0,"ksi":0,"f_ksi_vru":0,"k2":0,"f_fatal2":0,"sch":0,"f_school":0},"geometry":{"type":"LineString","coordinates":[[-75.158,39.984461],[-75.158,39.985539]]}},{"type":"Feature","properties":{"id":900017,"name":"SAMPLE 17 AVE","cls":4,"hin":0,"f_hin":0,"ksi":0,"f_ksi_vru":0,"k2":0,"f_fatal2":0,"sch":1,"f_school":100},"geometry":{"type":"LineString","coordinates":[[-75.158,39.985539],[-75.158,39.986617]]}},{"type":"Feature","properties":{"id":900018,"name":"N BROAD ST","cls":2,"hin":1,"f_hin":100,"ksi":0,"f_ksi_vru":0,"k2":0,"f_fatal2":0,"sch":0,"f_school":0},"geometry":{"type":"LineString","coordinates":[[-75.156124,39.984461],[-75.156124,39.985539]]}},{"type":"Feature","properties":{"id":900019,"name":"N BROAD ST","cls":2,"hin":1,"f_hin":100,"ksi":0,"f_ksi_vru":0,"k2":0,"f_fatal2":0,"sch":0,"f_school":0},"geometry":{"type":"LineString","coordinates":[[-75.156124,39.985539],[-75.156124,39.986617]]}},{"type":"Feature","properties":{"id":900020,"name":"SAMPLE 20 AVE","cls":4,"hin":0,"f_hin":0,"ksi":0,"f_ksi_vru":0,"k2":0,"f_fatal2":0,"sch":0,"f_school":0},"geometry":{"type":"LineString","coordinates":[[-75.154248,39.984461],[-75.154248,39.985539]]}},{"type":"Feature","properties":{"id":900021,"name":"SAMPLE 21 AVE","cls":4,"hin":0,"f_hin":0,"ksi":0,"f_ksi_vru":0,"k2":0,"f_fatal2":0,"sch":0,"f_school":0},"geometry":{"type":"LineString","coordinates":[[-75.154248,39.985539],[-75.154248,39.986617]]}},{"type":"Feature","properties":{"id":900022,"name":"SAMPLE 22 AVE","cls":4,"hin":0,"f_hin":0,"ksi":4,"f_ksi_vru":93,"k2":0,"f_fatal2":0,"sch":0,"f_school":0},"geometry":{"type":"LineString","coordinates":[[-75.152372,39.984461],[-75.152372,39.985539]]}},{"type":"Feature","properties":{"id":900023,"name":"SAMPLE 23 AVE","cls":4,"hin":0,"f_hin":0,"ksi":1,"f_ksi_vru":70,"k2":0,"f_fatal2":0,"sch":0,"f_school":0},"geometry":{"type":"LineString","coordinates":[[-75.152372,39.985539],[-75.152372,39.986617]]}},{"type":"Feature","properties":{"id":900024,"name":"SAMPLE 24 AVE","cls":4,"hin":0,"f_hin":0,"ksi":0,"f_ksi_vru":0,"k2":0,"f_fatal2":0,"sch":0,"f_school":0},"geometry":{"type":"LineString","coordinates":[[-75.150497,39.984461],[-75.150497,39.985539]]}},{"type":"Feature","properties":{"id":900025,"name":"SAMPLE 25 AVE","cls":4,"hin":0,"f_hin":0,"ksi":0,"f_ksi_vru":0,"k2":0,"f_fatal2":0,"sch":1,"f_school":100},"geometry":{"type":"LineString","coordinates":[[-75.150497,39.985539],[-75.150497,39.986617]]}},{"type":"Feature","properties":{"id":900026,"name":"SAMPLE 26 AVE","cls":4,"hin":0,"f_hin":0,"ksi":0,"f_ksi_vru":0,"k2":1,"f_fatal2":100,"sch":0,"f_school":0},"geometry":{"type":"LineString","coordinates":[[-75.148621,39.984461],[-75.148621,39.985539]]}},{"type":"Feature","properties":{"id":900027,"name":"SAMPLE 27 AVE","cls":4,"hin":0,"f_hin":0,"ksi":1,"f_ksi_vru":70,"k2":0,"f_fatal2":0,"sch":0,"f_school":0},"geometry":{"type":"LineString","coordinates":[[-75.148621,39.985539],[-75.148621,39.986617]]}}]}
