{"type":"FeatureCollection","features":[{"type":"Feature","properties":{"id":9000000000,"y":2017,"ya":7,"sev":1,"m":0},"geometry":{"type":"Point","coordinates":[-75.156124,39.985883]}},{"type":"Feature","properties":{"id":9000000001,"y":2020,"ya":4,"sev":2,"m":1},"geometry":{"type":"Point","coordinates":[-75.158,39.984734]}},{"type":"Feature","properties":{"id":9000000002,"y":2016,"ya":8,"sev":1,"m":2},"geometry":{"type":"Point","coordinates":[-75.156124,39.98631]}},{"type":"Feature","properties":{"id":9000000003,"y":2024,"ya":0,"sev":1,"m":0},"geometry":{"type":"Point","coordinates":[-75.156124,39.986493]}},{"type":"Feature","properties":{"id":9000000004,"y":2015,"ya":9,"sev":0,"m":0},"geometry":{"type":"Point","coordinates":[-75.156124,39.984665]}},{"type":"Feature","properties":{"id":9000000005,"y":2021,"ya":3,"sev":3,"m":0},"geometry":{"type":"Point","coordinates":[-75.148621,39.98473]}},{"type":"Feature","properties":{"id":9000000006,"y":2023,"ya":1,"sev":1,"m":4},"geometry":{"type":"Point","coordinates":[-75.153191,39.986617]}},{"type":"Feature","properties":{"id":9000000007,"y":2019,"ya":5,"sev":1,"m":2},"geometry":{"type":"Point","coordinates":[-75.151571,39.985539]}},{"type":"Feature","properties":{"id":9000000008,"y":2015,"ya":9,"sev":0,"m":0},"geometry":{"type":"Point","coordinates":[-75.152372,39.98556]}},{"type":"Feature","properties":{"id":9000000009,"y":2018,"ya":6,"sev":1,"m":0},"geometry":{"type":"Point","coordinates":[-75.151934,39.984461]}},{"type":"Feature","properties":{"id":9000000010,"y":2022,"ya":2,"sev":1,"m":0},"geometry":{"type":"Point","coordinates":[-75.150855,39.985539]}},{"type":"Feature","properties":{"id":9000000011,"y":2016,"ya":8,"sev":1,"m":2},"geometry":{"type":"Point","coordinates":[-75.155826,39.984461]}},{"type":"Feature","properties":{"id":9000000012,"y":2023,"ya":1,"sev":0,"m":0},"geometry":{"type":"Point","coordinates":[-75.150619,39.986617]}},{"type":"Feature","properties":{"id":9000000013,"y":2017,"ya":7,"sev":0,"m":0},"geometry":{"type":"Point","coordinates":[-75.153189,39.985539]}},{"type":"Feature","properties":{"id":9000000014,"y":2019,"ya":5,"sev":1,"m":3},"geometry":{"type":"Point","coordinates":[-75.155451,39.986617]}},{"type":"Feature","properties":{"id":9000000015,"y":2017,"ya":7,"sev":2,"m":0},"geometry":{"type":"Point","coordinates":[-75.156124,39.985876]}},{"type":"Feature","properties":{"id":9000000016,"y":2023,"ya":1,"sev":1,"m":1},"geometry":{"type":"Point","coordinates":[-75.152372,39.986295]}},{"type":"Feature","properties":{"id":9000000017,"y":2015,"ya":9,"sev":0,"m":3},"geometry":{"type":"Point","coordinates":[-75.154248,39.984981]}},{"type":"Feature","properties":{"id":9000000018,"y":2023,"ya":1,"sev":1,"m":0},"geometry":{"type":"Point","coordinates":[-75.150497,39.986054]}},{"type":"Feature","properties":{"id":9000000019,"y":2016,"ya":8,"sev":1,"m":0},"geometry":{"type":"Point","coordinates":[-75.156124,39.985404]}},{"type":"Feature","properties":{"id":9000000020,"y":2023,"ya":1,"sev":0,"m":4},"geometry":{"type":"Point","coordinates":[-75.154601,39.986617]}},{"type":"Feature","properties":{"id":9000000021,"y":2021,"ya":3,"sev":0,"m":0},"geometry":{"type":"Point","coordinates":[-75.158,39.98517]}},{"type":"Feature","properties":{"id":9000000022,"y":2023,"ya":1,"sev":1,"m":0},"geometry":{"type":"Point","coordinates":[-75.149273,39.986617]}},{"type":"Feature","properties":{"id":9000000023,"y":2021,"ya":3,"sev":0,"m":0},"geometry":{"type":"Point","coordinates":[-75.152372,39.984977]}},{"type":"Feature","properties":{"id":9000000024,"y":2017,"ya":7,"sev":1,"m":1},"geometry":{"type":"Point","coordinates":[-75.155852,39.985539]}},{"type":"Feature","properties":{"id":9000000025,"y":2017,"ya":7,"sev":1,"m":4},"geometry":{"type":"Point","coordinates":[-75.158,39.985677]}},{"type":"Feature","properties":{"id":9000000026,"y":2020,"ya":4,"sev":1,"m":4},"geometry":{"type":"Point","coordinates":[-75.152792,39.986617]}},{"type":"Feature","properties":{"id":9000000027,"y":2022,"ya":2,"sev":2,"m":0},"geometry":{"type":"Point","coordinates":[-75.149109,39.986617]}},{"type":"Feature","properties":{"id":9000000028,"y":2021,"ya":3,"sev":1,"m":0},"geometry":{"type":"Point","coordinates":[-75.150903,39.985539]}},{"type":"Feature","properties":{"id":9000000029,"y":2020,"ya":4,"sev":0,"m":4},"geometry":{"type":"Point","coordinates":[-75.148621,39.985228]}},{"type":"Feature","properties":{"id":9000000030,"y":2024,"ya":0,"sev":2,"m":0},"geometry":{"type":"Point","coordinates":[-75.154248,39.98606]}},{"type":"Feature","properties":{"id":9000000031,"y":2018,"ya":6,"sev":1,"m":0},"geometry":{"type":"Point","coordinates":[-75.156124,39.984461]}},{"type":"Feature","properties":{"id":9000000032,"y":2020,"ya":4,"sev":0,"m":2},"geometry":{"type":"Point","coordinates":[-75.154248,39.985831]}},{"type":"Feature","properties":{"id":9000000033,"y":2018,"ya":6,"sev":0,"m":0},"geometry":{"type":"Point","coordinates":[-75.148621,39.985417]}},{"type":"Feature","properties":{"id":9000000034,"y":2019,"ya":5,"sev":2,"m":1},"geometry":{"type":"Point","coordinates":[-75.156657,39.984461]}},{"type":"Feature","properties":{"id":9000000035,"y":2022,"ya":2,"sev":1,"m":4},"geometry":{"type":"Point","coordinates":[-75.157537,39.985539]}},{"type":"Feature","properties":{"id":9000000036,"y":2018,"ya":6,"sev":0,"m":0},"geometry":{"type":"Point","coordinates":[-75.155844,39.985539]}},{"type":"Feature","properties":{"id":9000000037,"y":2018,"ya":6,"sev":1,"m":0},"geometry":{"type":"Point","coordinates":[-75.150169,39.984461]}},{"type":"Feature","properties":{"id":9000000038,"y":2015,"ya":9,"sev":2,"m":0},"geometry":{"type":"Point","coordinates":[-75.150497,39.985216]}},{"type":"Feature","properties":{"id":9000000039,"y":2020,"ya":4,"sev":1,"m":1},"geometry":{"type":"Point","coordinates":[-75.158,39.98591]}},{"type":"Feature","properties":{"id":9000000040,"y":2023,"ya":1,"sev":0,"m":1},"geometry":{"type":"Point","coordinates":[-75.152372,39.985919]}},{"type":"Feature","properties":{"id":9000000041,"y":2019,"ya":5,"sev":1,"m":0},"geometry":{"type":"Point","coordinates":[-75.148621,39.985442]}},{"type":"Feature","properties":{"id":9000000042,"y":2022,"ya":2,"sev":1,"m":1},"geometry":{"type":"Point","coordinates":[-75.148621,39.984825]}},{"type":"Feature","properties":{"id":9000000043,"y":2018,"ya":6,"sev":3,"m":0},"geometry":{"type":"Point","coordinates":[-75.150497,39.985821]}},{"type":"Feature","properties":{"id":9000000044,"y":2020,"ya":4,"sev":0,"m":4},"geometry":{"type":"Point","coordinates":[-75.157485,39.985539]}},{"type":"Feature","properties":{"id":9000000045,"y":2020,"ya":4,"sev":0,"m":0},"geometry":{"type":"Point","coordinates":[-75.150497,39.985397]}},{"type":"Feature","properties":{"id":9000000046,"y":2021,"ya":3,"sev":0,"m":0},"geometry":{"type":"Point","coordinates":[-75.154674,39.985539]}},{"type":"Feature","properties":{"id":9000000047,"y":2016,"ya":8,"sev":0,"m":0},"geometry":{"type":"Point","coordinates":[-75.150148,39.984461]}},{"type":"Feature","properties":{"id":9000000048,"y":2020,"ya":4,"sev":1,"m":2},"geometry":{"type":"Point","coordinates":[-75.148621,39.984777]}},{"type":"Feature","properties":{"id":9000000049,"y":2019,"ya":5,"sev":1,"m":0},"geometry":{"type":"Point","coordinates":[-75.150497,39.985782]}},{"type":"Feature","properties":{"id":9000000050,"y":2019,"ya":5,"sev":1,"m":2},"geometry":{"type":"Point","coordinates":[-75.152372,39.98457]}},{"type":"Feature","properties":{"id":9000000051,"y":2024,"ya":0,"sev":1,"m":0},"geometry":{"type":"Point","coordinates":[-75.15491,39.985539]}},{"type":"Feature","properties":{"id":9000000052,"y":2023,"ya":1,"sev":0,"m":4},"geometry":{"type":"Point","coordinates":[-75.156989,39.985539]}},{"type":"Feature","properties":{"id":9000000053,"y":2016,"ya":8,"sev":1,"m":1},"geometry":{"type":"Point","coordinates":[-75.152127,39.984461]}},{"type":"Feature","properties":{"id":9000000054,"y":2022,"ya":2,"sev":1,"m":0},"geometry":{"type":"Point","coordinates":[-75.148621,39.985441]}},{"type":"Feature","properties":{"id":9000000055,"y":2015,"ya":9,"sev":2,"m":1},"geometry":{"type":"Point","coordinates":[-75.156124,39.985854]}},{"type":"Feature","properties":{"id":9000000056,"y":2016,"ya":8,"sev":0,"m":0},"geometry":{"type":"Point","coordinates":[-75.154248,39.984805]}},{"type":"Feature","properties":{"id":9000000057,"y":2021,"ya":3,"sev":1,"m":0},"geometry":{"type":"Point","coordinates":[-75.150497,39.986546]}},{"type":"Feature","properties":{"id":9000000058,"y":2017,"ya":7,"sev":2,"m":0},"geometry":{"type":"Point","coordinates":[-75.154613,39.986617]}},{"type":"Feature","properties":{"id":9000000059,"y":2017,"ya":7,"sev":1,"m":0},"geometry":{"type":"Point","coordinates":[-75.152042,39.985539]}},{"type":"Feature","properties":{"id":9000000060,"y":2018,"ya":6,"sev":1,"m":0},"geometry":{"type":"Point","coordinates":[-75.157526,39.986617]}},{"type":"Feature","properties":{"id":9000000061,"y":2021,"ya":3,"sev":0,"m":2},"geometry":{"type":"Point","coordinates":[-75.152273,39.986617]}},{"type":"Feature","properties":{"id":9000000062,"y":2016,"ya":8,"sev":0,"m":0},"geometry":{"type":"Point","coordinates":[-75.152372,39.986541]}},{"type":"Feature","properties":{"id":9000000063,"y":2022,"ya":2,"sev":1,"m":1},"geometry":{"type":"Point","coordinates":[-75.155217,39.986617]}},{"type":"Feature","properties":{"id":9000000064,"y":2018,"ya":6,"sev":1,"m":0},"geometry":{"type":"Point","coordinates":[-75.150497,39.985216]}},{"type":"Feature","properties":{"id":9000000065,"y":2018,"ya":6,"sev":2,"m":0},"geometry":{"type":"Point","coordinates":[-75.158,39.985045]}},{"type":"Feature","properties":{"id":9000000066,"y":2016,"ya":8,"sev":1,"m":0},"geometry":{"type":"Point","coordinates":[-75.154008,39.984461]}},{"type":"Feature","properties":{"id":9000000067,"y":2023,"ya":1,"sev":1,"m":0},"geometry":{"type":"Point","coordinates":[-75.148823,39.986617]}},{"type":"Feature","properties":{"id":9000000068,"y":2024,"ya":0,"sev":1,"m":0},"geometry":{"type":"Point","coordinates":[-75.158,39.986009]}},{"type":"Feature","properties":{"id":9000000069,"y":2022,"ya":2,"sev":0,"m":0},"geometry":{"type":"Point","coordinates":[-75.149774,39.986617]}},{"type":"Feature","properties":{"id":9000000070,"y":2024,"ya":0,"sev":0,"m":4},"geometry":{"type":"Point","coordinates":[-75.156567,39.986617]}},{"type":"Feature","properties":{"id":9000000071,"y":2022,"ya":2,"sev":0,"m":0},"geometry":{"type":"Point","coordinates":[-75.154248,39.986306]}},{"type":"Feature","properties":{"id":9000000072,"y":2022,"ya":2,"sev":1,"m":2},"geometry":{"type":"Point","coordinates":[-75.152372,39.986345]}},{"type":"Feature","properties":{"id":9000000073,"y":2019,"ya":5,"sev":0,"m":2},"geometry":{"type":"Point","coordinates":[-75.153102,39.984461]}},{"type":"Feature","properties":{"id":9000000074,"y":2018,"ya":6,"sev":1,"m":0},"geometry":{"type":"Point","coordinates":[-75.154046,39.985539]}},{"type":"Feature","properties":{"id":9000000075,"y":2021,"ya":3,"sev":1,"m":1},"geometry":{"type":"Point","coordinates":[-75.153989,39.986617]}},{"type":"Feature","properties":{"id":9000000076,"y":2020,"ya":4,"sev":1,"m":0},"geometry":{"type":"Point","coordinates":[-75.149362,39.984461]}},{"type":"Feature","properties":{"id":9000000077,"y":2019,"ya":5,"sev":0,"m":1},"geometry":{"type":"Point","coordinates":[-75.155456,39.986617]}},{"type":"Feature","properties":{"id":9000000078,"y":2024,"ya":0,"sev":1,"m":0},"geometry":{"type":"Point","coordinates":[-75.154248,39.986351]}},{"type":"Feature","properties":{"id":9000000079,"y":2017,"ya":7,"sev":1,"m":2},"geometry":{"type":"Point","coordinates":[-75.151271,39.986617]}},{"type":"Feature","properties":{"id":9000000080,"y":2017,"ya":7,"sev":0,"m":1},"geometry":{"type":"Point","coordinates":[-75.158,39.984682]}},{"type":"Feature","properties":{"id":9000000081,"y":2024,"ya":0,"sev":1,"m":0},"geometry":{"type":"Point","coordinates":[-75.158,39.985579]}},{"type":"Feature","properties":{"id":9000000082,"y":2015,"ya":9,"sev":2,"m":4},"geometry":{"type":"Point","coordinates":[-75.15466,39.985539]}},{"type":"Feature","properties":{"id":9000000083,"y":2020,"ya":4,"sev":0,"m":0},"geometry":{"type":"Point","coordinates":[-75.158,39.986598]}},{"type":"Feature","properties":{"id":9000000084,"y":2021,"ya":3,"sev":2,"m":2},"geometry":{"type":"Point","coordinates":[-75.149692,39.984461]}},{"type":"Feature","properties":{"id":9000000085,"y":2016,"ya":8,"sev":0,"m":2},"geometry":{"type":"Point","coordinates":[-75.148621,39.986282]}},{"type":"Feature","properties":{"id":9000000086,"y":2016,"ya":8,"sev":0,"m":1},"geometry":{"type":"Point","coordinates":[-75.150497,39.986267]}},{"type":"Feature","properties":{"id":9000000087,"y":2016,"ya":8,"sev":0,"m":0},"geometry":{"type":"Point","coordinates":[-75.15275,39.986617]}},{"type":"Feature","properties":{"id":9000000088,"y":2019,"ya":5,"sev":0,"m":0},"geometry":{"type":"Point","coordinates":[-75.148621,39.985832]}},{"type":"Feature","properties":{"id":9000000089,"y":2024,"ya":0,"sev":1,"m":1},"geometry":{"type":"Point","coordinates":[-75.158,39.985737]}},{"type":"Feature","properties":{"id":9000000090,"y":2022,"ya":2,"sev":0,"m":1},"geometry":{"type":"Point","coordinates":[-75.157148,39.984461]}},{"type":"Feature","properties":{"id":9000000091,"y":2020,"ya":4,"sev":0,"m":4},"geometry":{"type":"Point","coordinates":[-75.155228,39.986617]}},{"type":"Feature","properties":{"id":9000000092,"y":2023,"ya":1,"sev":1,"m":2},"geometry":{"type":"Point","coordinates":[-75.148621,39.985265]}},{"type":"Feature","properties":{"id":9000000093,"y":2023,"ya":1,"sev":0,"m":2},"geometry":{"type":"Point","coordinates":[-75.156124,39.984719]}},{"type":"Feature","properties":{"id":9000000094,"y":2016,"ya":8,"sev":1,"m":4},"geometry":{"type":"Point","coordinates":[-75.156978,39.986617]}},{"type":"Feature","properties":{"id":9000000095,"y":2019,"ya":5,"sev":1,"m":1},"geometry":{"type":"Point","coordinates":[-75.152948,39.986617]}},{"type":"Feature","properties":{"id":9000000096,"y":2020,"ya":4,"sev":1,"m":0},"geometry":{"type":"Point","coordinates":[-75.150497,39.984704]}},{"type":"Feature","properties":{"id":9000000097,"y":2020,"ya":4,"sev":2,"m":0},"geometry":{"type":"Point","coordinates":[-75.158,39.985711]}},{"type":"Feature","properties":{"id":9000000098,"y":2021,"ya":3,"sev":0,"m":0},"geometry":{"type":"Point","coordinates":[-75.154248,39.985992]}},{"type":"Feature","properties":{"id":9000000099,"y":2015,"ya":9,"sev":0,"m":0},"geometry":{"type":"Point","coordinates":[-75.154248,39.986036]}},{"type":"Feature","properties":{"id":9000000100,"y":2021,"ya":3,"sev":0,"m":0},"geometry":{"type":"Point","coordinates":[-75.158,39.984567]}},{"type":"Feature","properties":{"id":9000000101,"y":2016,"ya":8,"sev":0,"m":2},"geometry":{"type":"Point","coordinates":[-75.149366,39.985539]}},{"type":"Feature","properties":{"id":9000000102,"y":2016,"ya":8,"sev":0,"m":0},"geometry":{"type":"Point","coordinates":[-75.153192,39.985539]}},{"type":"Feature","properties":{"id":9000000103,"y":2016,"ya":8,"sev":1,"m":0},"geometry":{"type":"Point","coordinates":[-75.151991,39.986617]}},{"type":"Feature","properties":{"id":9000000104,"y":2024,"ya":0,"sev":0,"m":3},"geometry":{"type":"Point","coordinates":[-75.14883,39.986617]}},{"type":"Feature","properties":{"id":9000000105,"y":2019,"ya":5,"sev":0,"m":2},"geometry":{"type":"Point","coordinates":[-75.152347,39.985539]}},{"type":"Feature","properties":{"id":9000000106,"y":2016,"ya":8,"sev":1,"m":0},"geometry":{"type":"Point","coordinates":[-75.150497,39.98482]}},{"type":"Feature","properties":{"id":9000000107,"y":2023,"ya":1,"sev":1,"m":1},"geometry":{"type":"Point","coordinates":[-75.154248,39.984941]}},{"type":"Feature","properties":{"id":9000000108,"y":2016,"ya":8,"sev":1,"m":0},"geometry":{"type":"Point","coordinates":[-75.156124,39.985296]}},{"type":"Feature","properties":{"id":9000000109,"y":2019,"ya":5,"sev":1,"m":1},"geometry":{"type":"Point","coordinates":[-75.150497,39.986481]}},{"type":"Feature","properties":{"id":9000000110,"y":2021,"ya":3,"sev":0,"m":0},"geometry":{"type":"Point","coordinates":[-75.150029,39.985539]}},{"type":"Feature","properties":{"id":9000000111,"y":2020,"ya":4,"sev":0,"m":0},"geometry":{"type":"Point","coordinates":[-75.15151,39.984461]}},{"type":"Feature","properties":{"id":9000000112,"y":2016,"ya":8,"sev":1,"m":0},"geometry":{"type":"Point","coordinates":[-75.154844,39.984461]}},{"type":"Feature","properties":{"id":9000000113,"y":2021,"ya":3,"sev":0,"m":0},"geometry":{"type":"Point","coordinates":[-75.150644,39.984461]}},{"type":"Feature","properties":{"id":9000000114,"y":2020,"ya":4,"sev":0,"m":0},"geometry":{"type":"Point","coordinates":[-75.149852,39.986617]}},{"type":"Feature","properties":{"id":9000000115,"y":2017,"ya":7,"sev":2,"m":0},"geometry":{"type":"Point","coordinates":[-75.151384,39.986617]}},{"type":"Feature","properties":{"id":9000000116,"y":2017,"ya":7,"sev":1,"m":0},"geometry":{"type":"Point","coordinates":[-75.151073,39.985539]}},{"type":"Feature","properties":{"id":9000000117,"y":2015,"ya":9,"sev":1,"m":0},"geometry":{"type":"Point","coordinates":[-75.158,39.985778]}},{"type":"Feature","properties":{"id":9000000118,"y":2022,"ya":2,"sev":3,"m":2},"geometry":{"type":"Point","coordinates":[-75.157042,39.985539]}},{"type":"Feature","properties":{"id":9000000119,"y":2018,"ya":6,"sev":1,"m":1},"geometry":{"type":"Point","coordinates":[-75.149845,39.985539]}},{"type":"Feature","properties":{"id":9000000120,"y":2020,"ya":4,"sev":1,"m":0},"geometry":{"type":"Point","coordinates":[-75.150497,39.986012]}},{"type":"Feature","properties":{"id":9000000121,"y":2023,"ya":1,"sev":0,"m":0},"geometry":{"type":"Point","coordinates":[-75.155433,39.986617]}},{"type":"Feature","properties":{"id":9000000122,"y":2019,"ya":5,"sev":0,"m":3},"geometry":{"type":"Point","coordinates":[-75.148621,39.984684]}},{"type":"Feature","properties":{"id":9000000123,"y":2019,"ya":5,"sev":0,"m":0},"geometry":{"type":"Point","coordinates":[-75.152372,39.98641]}},{"type":"Feature","properties":{"id":9000000124,"y":2024,"ya":0,"sev":1,"m":0},"geometry":{"type":"Point","coordinates":[-75.156508,39.986617]}},{"type":"Feature","properties":{"id":9000000125,"y":2017,"ya":7,"sev":1,"m":0},"geometry":{"type":"Point","coordinates":[-75.155183,39.986617]}},{"type":"Feature","properties":{"id":9000000126,"y":2020,"ya":4,"sev":0,"m":4},"geometry":{"type":"Point","coordinates":[-75.150903,39.984461]}},{"type":"Feature","properties":{"id":9000000127,"y":2020,"ya":4,"sev":1,"m":0},"geometry":{"type":"Point","coordinates":[-75.15089,39.985539]}},{"type":"Feature","properties":{"id":9000000128,"y":2018,"ya":6,"sev":0,"m":1},"geometry":{"type":"Point","coordinates":[-75.156124,39.984609]}},{"type":"Feature","properties":{"id":9000000129,"y":2016,"ya":8,"sev":1,"m":0},"geometry":{"type":"Point","coordinates":[-75.150067,39.985539]}},{"type":"Feature","properties":{"id":9000000130,"y":2020,"ya":4,"sev":0,"m":1},"geometry":{"type":"Point","coordinates":[-75.149093,39.986617]}},{"type":"Feature","properties":{"id":9000000131,"y":2017,"ya":7,"sev":0,"m":0},"geometry":{"type":"Point","coordinates":[-75.152976,39.985539]}},{"type":"Feature","properties":{"id":9000000132,"y":2024,"ya":0,"sev":0,"m":0},"geometry":{"type":"Point","coordinates":[-75.152372,39.985493]}},{"type":"Feature","properties":{"id":9000000133,"y":2019,"ya":5,"sev":0,"m":3},"geometry":{"type":"Point","coordinates":[-75.150032,39.986617]}},{"type":"Feature","properties":{"id":9000000134,"y":2023,"ya":1,"sev":2,"m":2},"geometry":{"type":"Point","coordinates":[-75.152372,39.984752]}},{"type":"Feature","properties":{"id":9000000135,"y":2018,"ya":6,"sev":0,"m":0},"geometry":{"type":"Point","coordinates":[-75.152032,39.986617]}},{"type":"Feature","properties":{"id":9000000136,"y":2022,"ya":2,"sev":0,"m":1},"geometry":{"type":"Point","coordinates":[-75.158,39.985613]}},{"type":"Feature","properties":{"id":9000000137,"y":2021,"ya":3,"sev":2,"m":2},"geometry":{"type":"Point","coordinates":[-75.15258,39.985539]}},{"type":"Feature","properties":{"id":9000000138,"y":2016,"ya":8,"sev":1,"m":0},"geometry":{"type":"Point","coordinates":[-75.153856,39.985539]}},{"type":"Feature","properties":{"id":9000000139,"y":2018,"ya":6,"sev":2,"m":0},"geometry":{"type":"Point","coordinates":[-75.156124,39.985349]}},{"type":"Feature","properties":{"id":9000000140,"y":2019,"ya":5,"sev":0,"m":0},"geometry":{"type":"Point","coordinates":[-75.152244,39.984461]}},{"type":"Feature","properties":{"id":9000000141,"y":2021,"ya":3,"sev":0,"m":0},"geometry":{"type":"Point","coordinates":[-75.150497,39.985399]}},{"type":"Feature","properties":{"id":9000000142,"y":2017,"ya":7,"sev":1,"m":0},"geometry":{"type":"Point","coordinates":[-75.152372,39.98648]}},{"type":"Feature","properties":{"id":9000000143,"y":2017,"ya":7,"sev":1,"m":1},"geometry":{"type":"Point","coordinates":[-75.156124,39.986369]}},{"type":"Feature","properties":{"id":9000000144,"y":2018,"ya":6,"sev":1,"m":2},"geometry":{"type":"Point","coordinates":[-75.154248,39.984957]}},{"type":"Feature","properties":{"id":9000000145,"y":2021,"ya":3,"sev":2,"m":0},"geometry":{"type":"Point","coordinates":[-75.151211,39.986617]}},{"type":"Feature","properties":{"id":9000000146,"y":2019,"ya":5,"sev":1,"m":3},"geometry":{"type":"Point","coordinates":[-75.154248,39.986274]}},{"type":"Feature","properties":{"id":9000000147,"y":2020,"ya":4,"sev":2,"m":0},"geometry":{"type":"Point","coordinates":[-75.156141,39.985539]}},{"type":"Feature","properties":{"id":9000000148,"y":2018,"ya":6,"sev":1,"m":1},"geometry":{"type":"Point","coordinates":[-75.151609,39.986617]}},{"type":"Feature","properties":{"id":9000000149,"y":2019,"ya":5,"sev":1,"m":0},"geometry":{"type":"Point","coordinates":[-75.152518,39.984461]}},{"type":"Feature","properties":{"id":9000000150,"y":2016,"ya":8,"sev":1,"m":0},"geometry":{"type":"Point","coordinates":[-75.152168,39.986617]}},{"type":"Feature","properties":{"id":9000000151,"y":2024,"ya":0,"sev":1,"m":0},"geometry":{"type":"Point","coordinates":[-75.152713,39.986617]}},{"type":"Feature","properties":{"id":9000000152,"y":2022,"ya":2,"sev":0,"m":1},"geometry":{"type":"Point","coordinates":[-75.152909,39.986617]}},{"type":"Feature","properties":{"id":9000000153,"y":2018,"ya":6,"sev":2,"m":4},"geometry":{"type":"Point","coordinates":[-75.149087,39.985539]}},{"type":"Feature","properties":{"id":9000000154,"y":2020,"ya":4,"sev":1,"m":0},"geometry":{"type":"Point","coordinates":[-75.157007,39.986617]}},{"type":"Feature","properties":{"id":9000000155,"y":2022,"ya":2,"sev":0,"m":0},"geometry":{"type":"Point","coordinates":[-75.157769,39.984461]}},{"type":"Feature","properties":{"id":9000000156,"y":2021,"ya":3,"sev":2,"m":0},"geometry":{"type":"Point","coordinates":[-75.148621,39.985697]}},{"type":"Feature","properties":{"id":9000000157,"y":2016,"ya":8,"sev":0,"m":1},"geometry":{"type":"Point","coordinates":[-75.156124,39.986048]}},{"type":"Feature","properties":{"id":9000000158,"y":2024,"ya":0,"sev":0,"m":4},"geometry":{"type":"Point","coordinates":[-75.151465,39.984461]}},{"type":"Feature","properties":{"id":9000000159,"y":2018,"ya":6,"sev":0,"m":1},"geometry":{"type":"Point","coordinates":[-75.151101,39.986617]}}]}
