{"type":"FeatureCollection","features":[{"type":"Feature","properties":{"id":"16","r":"16","nm":"Broad-Erie to Cheltenham-Ogontz","md":1,"tw":150,"hp":8,"hm":11},"geometry":{"type":"LineString","coordinates":[[-75.156241,39.984461],[-75.156241,39.986617]]}},{"type":"Feature","properties":{"id":"60","r":"60","nm":"Sample route across town","md":1,"tw":44,"hp":20,"hm":30},"geometry":{"type":"LineString","coordinates":[[-75.158,39.985539],[-75.148621,39.985539]]}},{"type":"Feature","properties":{"id":"T1","r":"T1","nm":"13th St to 63rd-Malvern/Overbrook","md":2,"tw":228,"hp":8,"hm":10},"geometry":{"type":"LineString","coordinates":[[-75.158,39.986617],[-75.148621,39.986617]]}},{"type":"Feature","properties":{"id":"B1","r":"B1","nm":"Broad Street Line Local","md":4,"tw":280,"hp":7,"hm":7},"geometry":{"type":"LineString","coordinates":[[-75.156124,39.984461],[-75.156124,39.986617]]}},{"type":"Feature","properties":{"id":"CHW","r":"CHW","nm":"Chestnut Hill West Line","md":8,"tw":42,"hp":40,"hm":60},"geometry":{"type":"LineString","coordinates":[[-75.158,39.984461],[-75.148621,39.986617]]}}]}
