{"type":"FeatureCollection","features":[{"type":"Feature","properties":{"id":"pa-9001","nm":"Sample 3 St & Sample 5 Ave","sid":"1003","st":"sp1003","m":1},"geometry":{"type":"Point","coordinates":[-75.152326,39.986653]}},{"type":"Feature","properties":{"id":"pa-9002","nm":"Sample 2 St & Sample 5 Ave (far side)","sid":"1009-a","st":"sp1009","m":1,"dg":1},"geometry":{"type":"Point","coordinates":[-75.153334,39.985575]}},{"type":"Feature","properties":{"id":"pa-9003","nm":"Sample 2 St & Sample 5 Ave (far side)","sid":"1009-b","st":"sp1009","m":1},"geometry":{"type":"Point","coordinates":[-75.153263,39.985575]}},{"type":"Feature","properties":{"id":"pa-9004","nm":"Sample 1 St & Sample 9 Ave, southwest corner","sid":"NJT4"},"geometry":{"type":"Point","coordinates":[-75.149559,39.984407]}}]}
