{"type":"FeatureCollection","features":[{"type":"Feature","properties":{"id":"sp1001","sid":"1001","nm":"Sample 2 St & N Broad St (far side)","md":1,"r":"16,B1 OWL","tw":75,"ts":65,"tu":58,"bh":6,"hp":17,"hm":22,"hs":22,"hu":30,"ft":24,"lt":1507,"ev":8,"nt":3,"wc":1,"b":132,"bp":"Spring 2026","o":"n9100001","tc":1,"f_riders":40,"f_shade":33,"f_heat":33,"f_hin":100,"f_wait":40,"cp":24,"hin":1},"geometry":{"type":"Point","coordinates":[-75.156007,39.985539]}},{"type":"Feature","properties":{"id":"sp1002","sid":"1002","nm":"N Broad St & Sample 2 St","md":1,"r":"4,16","tw":140,"ts":90,"tu":70,"bh":10,"hp":6,"hm":9,"hs":12,"hu":15,"ft":305,"lt":1528,"ev":16,"nt":1,"wc":1,"b":848,"bp":"Spring 2026","o":"n9100002","tc":1,"f_riders":60,"f_shade":83,"f_heat":33,"f_hin":100,"f_wait":20,"cp":2,"hin":1,"sg":"stop_shade_trees"},"geometry":{"type":"Point","coordinates":[-75.156241,39.985539]}},{"type":"Feature","properties":{"id":"sp1003","sid":"1003","nm":"Sample 3 St & Sample 5 Ave","md":3,"r":"T1,47","tw":180,"ts":120,"tu":100,"bh":12,"hp":5,"hm":7,"hs":9,"hu":10,"ft":300,"lt":1450,"ev":20,"wc":1,"b":1240,"bp":"Spring 2026","o":"w9100003","tc":1,"f_riders":80,"f_shade":17,"f_heat":0,"f_hin":0,"f_wait":0,"cp":31},"geometry":{"type":"Point","coordinates":[-75.152372,39.986617]}},{"type":"Feature","properties":{"id":"sp1004","sid":"1004","nm":"Sample 1 St & Sample 8 Ave","md":1,"r":"60","tw":22,"ts":12,"tu":0,"bh":2,"hp":40,"hm":60,"hs":120,"ft":380,"lt":1180,"ev":0,"wc":1,"o":"n9100004","tc":1,"f_shade":67,"f_heat":83,"f_hin":0,"f_wait":60,"cp":6},"geometry":{"type":"Point","coordinates":[-75.150497,39.984461]}},{"type":"Feature","properties":{"id":"sp1105","sid":"1005","nm":"Sample 2 St & Sample 6 Ave (midblock, near side)","md":1,"r":"60","tw":22,"ts":12,"tu":0,"bh":2,"hp":40,"hm":60,"hs":120,"ft":385,"lt":1185,"ev":0,"wc":2,"fid":"1105","b":4,"bp":"Spring 2026","bx":"1105","tc":1,"f_riders":20,"f_shade":50,"f_heat":67,"f_hin":0,"f_wait":60,"cp":12},"geometry":{"type":"Point","coordinates":[-75.151435,39.985539]}},{"type":"Feature","properties":{"id":"sp1008","sid":"1008","nm":"Sample 3 St & Sample 2 St","md":1,"r":"441","tw":1,"ts":0,"tu":0,"bh":1,"ft":388,"lt":388,"ev":0,"wc":1,"b":0,"bp":"Spring 2026","o":"n9100008","tc":1,"f_riders":0,"f_shade":0,"f_heat":0,"f_hin":0,"cp":40},"geometry":{"type":"Point","coordinates":[-75.154248,39.986617]}},{"type":"Feature","properties":{"id":"sp1006","sid":"1006","nm":"Sample","md":4,"r":"B1,B2,B3","tw":283,"ts":153,"tu":113,"bh":27,"hp":2,"hm":5,"hs":7,"hu":7,"ft":307,"lt":1455,"ev":23,"wc":2},"geometry":{"type":"Point","coordinates":[-75.156124,39.98482]}},{"type":"Feature","properties":{"id":"sp1007","sid":"1007","nm":"Sample","md":4,"r":"B1,B2,B3","tw":284,"ts":152,"tu":104,"bh":26,"hp":2,"hm":4,"hs":7,"hu":10,"ft":315,"lt":1485,"ev":28,"wc":2},"geometry":{"type":"Point","coordinates":[-75.156112,39.98482]}},{"type":"Feature","properties":{"id":"sr90009","sid":"90009","nm":"Sample Regional Rail Station","md":8,"r":"CHW","tw":42,"ts":18,"tu":18,"bh":3,"hp":40,"hm":60,"hs":120,"hu":120,"ft":330,"lt":1430,"ev":6,"wc":1},"geometry":{"type":"Point","coordinates":[-75.148621,39.986617]}}]}
