{"type":"FeatureCollection","features":[{"type":"Feature","properties":{"sp":"Red Maple","d":2},"geometry":{"type":"Point","coordinates":[-75.158,39.985503]}},{"type":"Feature","properties":{"sp":"London Planetree","d":3},"geometry":{"type":"Point","coordinates":[-75.157531,39.985503]}},{"type":"Feature","properties":{"sp":"Callery Pear","d":8},"geometry":{"type":"Point","coordinates":[-75.157062,39.985503]}},{"type":"Feature","properties":{"d":14},"geometry":{"type":"Point","coordinates":[-75.156593,39.985503]}},{"type":"Feature","properties":{"sp":"Pin Oak","d":22},"geometry":{"type":"Point","coordinates":[-75.156124,39.985503]}},{"type":"Feature","properties":{"sp":"Japanese Zelkova"},"geometry":{"type":"Point","coordinates":[-75.155655,39.985503]}},{"type":"Feature","properties":{"sp":"Red Maple","d":31},"geometry":{"type":"Point","coordinates":[-75.155186,39.985503]}},{"type":"Feature","properties":{"sp":"London Planetree","d":2},"geometry":{"type":"Point","coordinates":[-75.154717,39.985503]}},{"type":"Feature","properties":{"sp":"Callery Pear","d":3},"geometry":{"type":"Point","coordinates":[-75.154248,39.985503]}},{"type":"Feature","properties":{"d":8},"geometry":{"type":"Point","coordinates":[-75.153779,39.985503]}},{"type":"Feature","properties":{"sp":"Pin Oak","d":14},"geometry":{"type":"Point","coordinates":[-75.15331,39.985503]}},{"type":"Feature","properties":{"sp":"Japanese Zelkova","d":22},"geometry":{"type":"Point","coordinates":[-75.152841,39.985503]}},{"type":"Feature","properties":{"sp":"Red Maple"},"geometry":{"type":"Point","coordinates":[-75.152372,39.985503]}},{"type":"Feature","properties":{"sp":"London Planetree","d":31},"geometry":{"type":"Point","coordinates":[-75.151903,39.985503]}},{"type":"Feature","properties":{"sp":"Callery Pear","d":2},"geometry":{"type":"Point","coordinates":[-75.151435,39.985503]}},{"type":"Feature","properties":{"d":3},"geometry":{"type":"Point","coordinates":[-75.150966,39.985503]}},{"type":"Feature","properties":{"sp":"Pin Oak","d":8},"geometry":{"type":"Point","coordinates":[-75.150497,39.985503]}},{"type":"Feature","properties":{"sp":"Japanese Zelkova","d":14},"geometry":{"type":"Point","coordinates":[-75.150028,39.985503]}},{"type":"Feature","properties":{"sp":"Red Maple","d":22},"geometry":{"type":"Point","coordinates":[-75.149559,39.985503]}},{"type":"Feature","properties":{"sp":"London Planetree"},"geometry":{"type":"Point","coordinates":[-75.14909,39.985503]}},{"type":"Feature","properties":{"sp":"Callery Pear","d":31},"geometry":{"type":"Point","coordinates":[-75.148621,39.985503]}},{"type":"Feature","properties":{"d":2},"geometry":{"type":"Point","coordinates":[-75.158,39.984425]}},{"type":"Feature","properties":{"sp":"Pin Oak","d":3},"geometry":{"type":"Point","coordinates":[-75.157297,39.984425]}},{"type":"Feature","properties":{"sp":"Japanese Zelkova","d":8},"geometry":{"type":"Point","coordinates":[-75.156593,39.984425]}},{"type":"Feature","properties":{"sp":"Red Maple","d":14},"geometry":{"type":"Point","coordinates":[-75.15589,39.984425]}},{"type":"Feature","properties":{"sp":"London Planetree","d":22},"geometry":{"type":"Point","coordinates":[-75.155186,39.984425]}},{"type":"Feature","properties":{"sp":"Callery Pear"},"geometry":{"type":"Point","coordinates":[-75.154483,39.984425]}},{"type":"Feature","properties":{"d":31},"geometry":{"type":"Point","coordinates":[-75.153779,39.984425]}},{"type":"Feature","properties":{"sp":"Pin Oak","d":2},"geometry":{"type":"Point","coordinates":[-75.153076,39.984425]}},{"type":"Feature","properties":{"sp":"Japanese Zelkova","d":3},"geometry":{"type":"Point","coordinates":[-75.152372,39.984425]}},{"type":"Feature","properties":{"sp":"Red Maple","d":8},"geometry":{"type":"Point","coordinates":[-75.154248,39.986653]}},{"type":"Feature","properties":{"sp":"London Planetree","d":14},"geometry":{"type":"Point","coordinates":[-75.15331,39.986653]}},{"type":"Feature","properties":{"sp":"Callery Pear","d":22},"geometry":{"type":"Point","coordinates":[-75.152372,39.986653]}},{"type":"Feature","properties":{},"geometry":{"type":"Point","coordinates":[-75.151435,39.986653]}},{"type":"Feature","properties":{"sp":"Pin Oak","d":31},"geometry":{"type":"Point","coordinates":[-75.150497,39.986653]}},{"type":"Feature","properties":{"sp":"Japanese Zelkova","d":2},"geometry":{"type":"Point","coordinates":[-75.149559,39.986653]}},{"type":"Feature","properties":{"sp":"Red Maple","d":3},"geometry":{"type":"Point","coordinates":[-75.148621,39.986653]}}]}
