{"type":"FeatureCollection","features":[{"type":"Feature","properties":{"id":"421019001001","w":8.3,"nw":2,"rc":6,"rt":9,"rj":4,"rh":7,"qw":1,"qc":1,"qt":2,"qm":1},"geometry":{"type":"Polygon","coordinates":[[[-75.160345,39.983653],[-75.156241,39.983653],[-75.156241,39.988773],[-75.160345,39.988773],[-75.160345,39.983653]]]}},{"type":"Feature","properties":{"id":"421019001002","w":13.2,"nw":3,"rc":15,"rt":18,"rj":8,"rh":10,"qw":2,"qc":3,"qt":3,"qm":2},"geometry":{"type":"Polygon","coordinates":[[[-75.156241,39.983653],[-75.152724,39.983653],[-75.152724,39.988773],[-75.156241,39.988773],[-75.156241,39.983653]]]}},{"type":"Feature","properties":{"id":"421019002001","w":15.8,"nw":4,"rc":18,"rt":19,"rj":12,"rh":13,"qw":4,"qc":4,"qt":4,"qm":4},"geometry":{"type":"Polygon","coordinates":[[[-75.152724,39.983653],[-75.149207,39.983653],[-75.149207,39.988773],[-75.152724,39.988773],[-75.152724,39.983653]]]}},{"type":"Feature","properties":{"id":"421019002002","w":18.7,"nw":4,"rc":20,"rt":20,"rj":17,"rh":16,"qw":5,"qc":5,"qt":5,"qm":5},"geometry":{"type":"Polygon","coordinates":[[[-75.149207,39.983653],[-75.14569,39.983653],[-75.14569,39.988773],[-75.149207,39.988773],[-75.149207,39.983653]]]}}]}
