{"type":"FeatureCollection","features":[{"type":"Feature","properties":{"h":"892a1348d03ffff","p":5200,"d":7,"dk":127,"k":62,"f_walk":90,"f_neighbors":90,"f_dest":90,"f_corners":90},"geometry":{"type":"Polygon","coordinates":[[[-75.1530736,39.987368],[-75.1551216,39.9864173],[-75.1550105,39.984674],[-75.1528516,39.9838814],[-75.1508037,39.984832],[-75.1509146,39.9865753],[-75.1530736,39.987368]]]}},{"type":"Feature","properties":{"h":"892a1348d07ffff","p":3100,"d":6,"dk":126,"k":40,"f_walk":60,"f_neighbors":60,"f_dest":60,"f_corners":60},"geometry":{"type":"Polygon","coordinates":[[[-75.1508037,39.984832],[-75.1528516,39.9838814],[-75.1527406,39.9821381],[-75.1505818,39.9813454],[-75.148534,39.982296],[-75.1486448,39.9840393],[-75.1508037,39.984832]]]}},{"type":"Feature","properties":{"h":"892a1348d0bffff","p":3137,"d":6,"dk":126,"k":41,"f_walk":60,"f_neighbors":61,"f_dest":60,"f_corners":60},"geometry":{"type":"Polygon","coordinates":[[[-75.1572807,39.98721],[-75.1593286,39.9862592],[-75.1592173,39.9845159],[-75.1570584,39.9837233],[-75.1550105,39.984674],[-75.1551216,39.9864173],[-75.1572807,39.98721]]]}},{"type":"Feature","properties":{"h":"892a1348d0fffff","p":3174,"d":6,"dk":126,"k":42,"f_walk":60,"f_neighbors":62,"f_dest":60,"f_corners":60},"geometry":{"type":"Polygon","coordinates":[[[-75.1550105,39.984674],[-75.1570584,39.9837233],[-75.1569472,39.9819801],[-75.1547884,39.9811875],[-75.1527406,39.9821381],[-75.1528516,39.9838814],[-75.1550105,39.984674]]]}},{"type":"Feature","properties":{"h":"892a1348d13ffff","p":3211,"d":6,"dk":126,"k":43,"f_walk":60,"f_neighbors":63,"f_dest":60,"f_corners":60},"geometry":{"type":"Polygon","coordinates":[[[-75.1511365,39.9900621],[-75.1531846,39.9891114],[-75.1530736,39.987368],[-75.1509146,39.9865753],[-75.1488665,39.9875259],[-75.1489774,39.9892693],[-75.1511365,39.9900621]]]}},{"type":"Feature","properties":{"h":"892a1348d17ffff","p":3248,"d":6,"dk":126,"k":40,"f_walk":60,"f_neighbors":64,"f_dest":60,"f_corners":60},"geometry":{"type":"Polygon","coordinates":[[[-75.1488665,39.9875259],[-75.1509146,39.9865753],[-75.1508037,39.984832],[-75.1486448,39.9840393],[-75.1465968,39.9849898],[-75.1467076,39.9867331],[-75.1488665,39.9875259]]]}},{"type":"Feature","properties":{"h":"892a1348d1bffff","p":3285,"d":6,"dk":126,"k":41,"f_walk":60,"f_neighbors":60,"f_dest":60,"f_corners":60},"geometry":{"type":"Polygon","coordinates":[[[-75.1553438,39.9899041],[-75.1573919,39.9889533],[-75.1572807,39.98721],[-75.1551216,39.9864173],[-75.1530736,39.987368],[-75.1531846,39.9891114],[-75.1553438,39.9899041]]]}},{"type":"Feature","properties":{"h":"892a1348d33ffff","p":900,"d":3,"dk":98,"k":12,"f_walk":20,"f_neighbors":20,"f_dest":20,"f_corners":20},"geometry":{"type":"Polygon","coordinates":[[[-75.148534,39.982296],[-75.1505818,39.9813454],[-75.1504709,39.9796022],[-75.1483123,39.9788096],[-75.1462645,39.97976],[-75.1463753,39.9815033],[-75.148534,39.982296]]]}},{"type":"Feature","properties":{"h":"892a1348d3bffff","p":937,"d":3,"dk":98,"k":13,"f_walk":20,"f_neighbors":21,"f_dest":20,"f_corners":20},"geometry":{"type":"Polygon","coordinates":[[[-75.1527406,39.9821381],[-75.1547884,39.9811875],[-75.1546773,39.9794443],[-75.1525186,39.9786517],[-75.1504709,39.9796022],[-75.1505818,39.9813454],[-75.1527406,39.9821381]]]}},{"type":"Feature","properties":{"h":"892a1348d47ffff","p":974,"d":3,"dk":98,"k":14,"f_walk":20,"f_neighbors":22,"f_dest":20,"f_corners":20},"geometry":{"type":"Polygon","coordinates":[[[-75.1614877,39.9870517],[-75.1635355,39.9861009],[-75.1634241,39.9843576],[-75.1612651,39.9835651],[-75.1592173,39.9845159],[-75.1593286,39.9862592],[-75.1614877,39.9870517]]]}},{"type":"Feature","properties":{"h":"892a1348d57ffff","p":1011,"d":3,"dk":98,"k":15,"f_walk":20,"f_neighbors":23,"f_dest":20,"f_corners":20},"geometry":{"type":"Polygon","coordinates":[[[-75.1595511,39.9897459],[-75.1615991,39.9887951],[-75.1614877,39.9870517],[-75.1593286,39.9862592],[-75.1572807,39.98721],[-75.1573919,39.9889533],[-75.1595511,39.9897459]]]}},{"type":"Feature","properties":{"h":"892a1348d73ffff","p":1048,"d":3,"dk":98,"k":12,"f_walk":20,"f_neighbors":24,"f_dest":20,"f_corners":20},"geometry":{"type":"Polygon","coordinates":[[[-75.1592173,39.9845159],[-75.1612651,39.9835651],[-75.1611538,39.9818219],[-75.1589949,39.9810294],[-75.1569472,39.9819801],[-75.1570584,39.9837233],[-75.1592173,39.9845159]]]}},{"type":"Feature","properties":{"h":"892a1348d77ffff","p":1085,"d":3,"dk":98,"k":13,"f_walk":20,"f_neighbors":20,"f_dest":20,"f_corners":20},"geometry":{"type":"Polygon","coordinates":[[[-75.1569472,39.9819801],[-75.1589949,39.9810294],[-75.1588837,39.9792862],[-75.1567249,39.9784937],[-75.1546773,39.9794443],[-75.1547884,39.9811875],[-75.1569472,39.9819801]]]}},{"type":"Feature","properties":{"h":"892a1348d8bffff","p":1122,"d":3,"dk":98,"k":14,"f_walk":20,"f_neighbors":21,"f_dest":20,"f_corners":20},"geometry":{"type":"Polygon","coordinates":[[[-75.1491992,39.9927562],[-75.1512475,39.9918055],[-75.1511365,39.9900621],[-75.1489774,39.9892693],[-75.1469292,39.9902199],[-75.14704,39.9919634],[-75.1491992,39.9927562]]]}},{"type":"Feature","properties":{"h":"892a1348d8fffff","p":1159,"d":3,"dk":98,"k":15,"f_walk":20,"f_neighbors":22,"f_dest":20,"f_corners":20},"geometry":{"type":"Polygon","coordinates":[[[-75.1469292,39.9902199],[-75.1489774,39.9892693],[-75.1488665,39.9875259],[-75.1467076,39.9867331],[-75.1446594,39.9876837],[-75.1447701,39.9894271],[-75.1469292,39.9902199]]]}},{"type":"Feature","properties":{"h":"892a1348dabffff","p":1196,"d":3,"dk":98,"k":12,"f_walk":20,"f_neighbors":23,"f_dest":20,"f_corners":20},"geometry":{"type":"Polygon","coordinates":[[[-75.1465968,39.9849898],[-75.1486448,39.9840393],[-75.148534,39.982296],[-75.1463753,39.9815033],[-75.1443273,39.9824537],[-75.144438,39.984197],[-75.1465968,39.9849898]]]}},{"type":"Feature","properties":{"h":"892a1348dbbffff","p":1233,"d":3,"dk":98,"k":13,"f_walk":20,"f_neighbors":24,"f_dest":20,"f_corners":20},"geometry":{"type":"Polygon","coordinates":[[[-75.1446594,39.9876837],[-75.1467076,39.9867331],[-75.1465968,39.9849898],[-75.144438,39.984197],[-75.1423899,39.9851475],[-75.1425006,39.9868908],[-75.1446594,39.9876837]]]}},{"type":"Feature","properties":{"h":"892a1348dc7ffff","p":1270,"d":3,"dk":98,"k":14,"f_walk":20,"f_neighbors":20,"f_dest":20,"f_corners":20},"geometry":{"type":"Polygon","coordinates":[[[-75.1534067,39.9925983],[-75.1554549,39.9916475],[-75.1553438,39.9899041],[-75.1531846,39.9891114],[-75.1511365,39.9900621],[-75.1512475,39.9918055],[-75.1534067,39.9925983]]]}},{"type":"Feature","properties":{"h":"892a1348dcfffff","p":1307,"d":3,"dk":98,"k":15,"f_walk":20,"f_neighbors":21,"f_dest":20,"f_corners":20},"geometry":{"type":"Polygon","coordinates":[[[-75.1576142,39.9924402],[-75.1596624,39.9914894],[-75.1595511,39.9897459],[-75.1573919,39.9889533],[-75.1553438,39.9899041],[-75.1554549,39.9916475],[-75.1576142,39.9924402]]]}}]}
